{
"type": "FeatureCollection",
"name": "districts",
"crs": { "type": "name", "properties": { "name": "urn:ogc:def:crs:OGC:1.3:CRS84" } },
"xy_coordinate_resolution": 1e-06,
"features": [
{ "type": "Feature", "properties": { "id": "1", "name": "Stare Miasto", "district_full_name": "Dzielnica I Stare Miasto", "district_no": "I", "population_est": 3370 }, "geometry": { "type": "Polygon", "coordinates": [ [ [ 19.923765, 50.062551 ], [ 19.927463, 50.055816 ], [ 19.928102, 50.05532 ], [ 19.927897, 50.054917 ], [ 19.928486, 50.054166 ], [ 19.930145, 50.054452 ], [ 19.931381, 50.0542 ], [ 19.931651, 50.053962 ], [ 19.933129, 50.051359 ], [ 19.934983, 50.048686 ], [ 19.937798, 50.045776 ], [ 19.939659, 50.045033 ], [ 19.941364, 50.04484 ], [ 19.942759, 50.044883 ], [ 19.944136, 50.045132 ], [ 19.948194, 50.046734 ], [ 19.954662, 50.050105 ], [ 19.953818, 50.050862 ], [ 19.953345, 50.050652 ], [ 19.949603, 50.053771 ], [ 19.948925, 50.054074 ], [ 19.949053, 50.05441 ], [ 19.94834, 50.055472 ], [ 19.947854, 50.055534 ], [ 19.947992, 50.05609 ], [ 19.947337, 50.058446 ], [ 19.947525, 50.058769 ], [ 19.9473, 50.059978 ], [ 19.947585, 50.060721 ], [ 19.947441, 50.06115 ], [ 19.947642, 50.061284 ], [ 19.947481, 50.061578 ], [ 19.947393, 50.064835 ], [ 19.949258, 50.065006 ], [ 19.949286, 50.06555 ], [ 19.950072, 50.067257 ], [ 19.949974, 50.068149 ], [ 19.952085, 50.067778 ], [ 19.960167, 50.07863 ], [ 19.957921, 50.07876 ], [ 19.956957, 50.079784 ], [ 19.956649, 50.07986 ], [ 19.950479, 50.080738 ], [ 19.950512, 50.080586 ], [ 19.947363, 50.080977 ], [ 19.946133, 50.079137 ], [ 19.945414, 50.077528 ], [ 19.944968, 50.077262 ], [ 19.944759, 50.07731 ], [ 19.941054, 50.076049 ], [ 19.941017, 50.075585 ], [ 19.940306, 50.075297 ], [ 19.938111, 50.07348 ], [ 19.936997, 50.073492 ], [ 19.934698, 50.073188 ], [ 19.934428, 50.073341 ], [ 19.932934, 50.072957 ], [ 19.927706, 50.07028 ], [ 19.925391, 50.066875 ], [ 19.923765, 50.062551 ] ] ] } },
{ "type": "Feature", "properties": { "id": "2", "name": "Grzegórzki", "district_full_name": "Dzielnica II Grzegórzki", "district_no": "II", "population_est": 2164 }, "geometry": { "type": "Polygon", "coordinates": [ [ [ 19.947292, 50.059783 ], [ 19.947478, 50.059775 ], [ 19.947442, 50.057619 ], [ 19.947992, 50.05609 ], [ 19.947854, 50.055534 ], [ 19.94834, 50.055472 ], [ 19.949053, 50.05441 ], [ 19.948925, 50.054074 ], [ 19.949603, 50.053771 ], [ 19.953345, 50.050652 ], [ 19.953818, 50.050862 ], [ 19.954662, 50.050105 ], [ 19.95637, 50.051026 ], [ 19.958732, 50.051903 ], [ 19.96009, 50.052355 ], [ 19.962786, 50.05281 ], [ 19.965683, 50.052854 ], [ 19.970621, 50.052218 ], [ 19.972338, 50.052307 ], [ 19.977016, 50.053524 ], [ 19.978948, 50.054264 ], [ 19.981085, 50.05587 ], [ 19.982333, 50.057595 ], [ 19.984225, 50.059097 ], [ 19.985273, 50.059621 ], [ 19.98685, 50.059855 ], [ 19.98648, 50.060382 ], [ 19.984827, 50.061544 ], [ 19.982769, 50.062129 ], [ 19.982147, 50.062449 ], [ 19.984536, 50.063692 ], [ 19.988645, 50.064468 ], [ 19.988448, 50.067114 ], [ 19.988139, 50.067226 ], [ 19.988189, 50.06799 ], [ 19.987085, 50.069047 ], [ 19.98417, 50.070556 ], [ 19.983368, 50.069838 ], [ 19.982881, 50.070056 ], [ 19.98177, 50.068401 ], [ 19.981014, 50.068785 ], [ 19.976721, 50.067291 ], [ 19.974539, 50.070787 ], [ 19.973161, 50.072489 ], [ 19.971897, 50.07364 ], [ 19.972004, 50.073705 ], [ 19.969964, 50.075235 ], [ 19.968688, 50.075937 ], [ 19.968449, 50.076423 ], [ 19.967818, 50.076684 ], [ 19.967993, 50.076867 ], [ 19.967158, 50.0772 ], [ 19.967012, 50.077032 ], [ 19.964179, 50.078222 ], [ 19.959298, 50.079636 ], [ 19.956957, 50.079784 ], [ 19.957921, 50.07876 ], [ 19.960167, 50.07863 ], [ 19.952085, 50.067778 ], [ 19.949974, 50.068149 ], [ 19.950072, 50.067257 ], [ 19.949286, 50.06555 ], [ 19.949258, 50.065006 ], [ 19.947393, 50.064835 ], [ 19.947481, 50.061578 ], [ 19.947642, 50.061284 ], [ 19.947441, 50.06115 ], [ 19.947585, 50.060721 ], [ 19.947292, 50.059783 ] ] ] } },
{ "type": "Feature", "properties": { "id": "3", "name": "Prądnik Czerwony", "district_full_name": "Dzielnica III Prądnik Czerwony", "district_no": "III", "population_est": 2553 }, "geometry": { "type": "Polygon", "coordinates": [ [ [ 19.947346, 50.081001 ], [ 19.950512, 50.080586 ], [ 19.950479, 50.080738 ], [ 19.95713, 50.079741 ], [ 19.957225, 50.079837 ], [ 19.959298, 50.079636 ], [ 19.964179, 50.078222 ], [ 19.967012, 50.077032 ], [ 19.967158, 50.0772 ], [ 19.967993, 50.076867 ], [ 19.967818, 50.076684 ], [ 19.968449, 50.076423 ], [ 19.968688, 50.075937 ], [ 19.969964, 50.075235 ], [ 19.972004, 50.073705 ], [ 19.971897, 50.07364 ], [ 19.974, 50.071543 ], [ 19.976721, 50.067291 ], [ 19.981014, 50.068785 ], [ 19.98177, 50.068401 ], [ 19.982881, 50.070056 ], [ 19.983368, 50.069838 ], [ 19.984988, 50.071341 ], [ 19.985827, 50.071862 ], [ 19.985448, 50.072166 ], [ 19.985871, 50.072583 ], [ 19.986259, 50.072668 ], [ 19.987101, 50.07254 ], [ 19.987419, 50.073209 ], [ 19.988509, 50.073267 ], [ 19.988135, 50.075596 ], [ 19.989061, 50.076073 ], [ 19.989344, 50.07658 ], [ 19.988628, 50.077154 ], [ 19.987239, 50.079666 ], [ 19.987641, 50.080104 ], [ 19.989394, 50.080517 ], [ 19.988268, 50.082595 ], [ 19.987947, 50.082747 ], [ 19.987633, 50.083313 ], [ 19.987178, 50.083401 ], [ 19.986489, 50.083174 ], [ 19.986183, 50.083719 ], [ 19.986782, 50.083705 ], [ 19.986425, 50.084316 ], [ 19.985578, 50.084523 ], [ 19.984527, 50.085339 ], [ 19.983952, 50.085539 ], [ 19.982342, 50.085543 ], [ 19.982456, 50.086266 ], [ 19.979326, 50.086074 ], [ 19.978509, 50.087929 ], [ 19.980596, 50.0882 ], [ 19.980125, 50.089755 ], [ 19.982854, 50.090057 ], [ 19.982965, 50.090282 ], [ 19.983632, 50.090422 ], [ 19.987852, 50.09095 ], [ 19.987502, 50.094399 ], [ 19.987822, 50.094867 ], [ 19.988075, 50.094914 ], [ 19.987696, 50.095622 ], [ 19.988057, 50.097902 ], [ 19.987761, 50.097903 ], [ 19.989338, 50.098441 ], [ 19.990515, 50.099055 ], [ 19.992478, 50.099555 ], [ 19.992042, 50.100266 ], [ 19.990702, 50.099944 ], [ 19.990429, 50.100405 ], [ 19.990698, 50.100605 ], [ 19.990652, 50.101415 ], [ 19.991008, 50.101949 ], [ 19.990832, 50.102507 ], [ 19.991064, 50.10288 ], [ 19.991044, 50.103882 ], [ 19.986674, 50.104783 ], [ 19.985237, 50.104354 ], [ 19.977867, 50.101554 ], [ 19.970407, 50.097213 ], [ 19.968779, 50.09666 ], [ 19.966748, 50.096353 ], [ 19.961181, 50.093453 ], [ 19.960791, 50.093413 ], [ 19.95333, 50.088643 ], [ 19.952106, 50.087698 ], [ 19.950713, 50.085824 ], [ 19.950867, 50.085782 ], [ 19.949717, 50.084225 ], [ 19.948856, 50.082642 ], [ 19.948512, 50.082722 ], [ 19.947346, 50.081001 ] ] ] } },
{ "type": "Feature", "properties": { "id": "4", "name": "Prądnik Biały", "district_full_name": "Dzielnica IV Prądnik Biały", "district_no": "IV", "population_est": 6575 }, "geometry": { "type": "Polygon", "coordinates": [ [ [ 19.861826, 50.105947 ], [ 19.863573, 50.102621 ], [ 19.864337, 50.101743 ], [ 19.864452, 50.100677 ], [ 19.865317, 50.099548 ], [ 19.866611, 50.099998 ], [ 19.867374, 50.099178 ], [ 19.867688, 50.099433 ], [ 19.868935, 50.097856 ], [ 19.873645, 50.095568 ], [ 19.877279, 50.093091 ], [ 19.880306, 50.091543 ], [ 19.884118, 50.089892 ], [ 19.890069, 50.087796 ], [ 19.890865, 50.087599 ], [ 19.892266, 50.087511 ], [ 19.892461, 50.087256 ], [ 19.891414, 50.086525 ], [ 19.891339, 50.083432 ], [ 19.896346, 50.083812 ], [ 19.899879, 50.083455 ], [ 19.9044, 50.082617 ], [ 19.916053, 50.082216 ], [ 19.921163, 50.082257 ], [ 19.930096, 50.082655 ], [ 19.934148, 50.082561 ], [ 19.947346, 50.081001 ], [ 19.948512, 50.082722 ], [ 19.948856, 50.082642 ], [ 19.949717, 50.084225 ], [ 19.950867, 50.085782 ], [ 19.950713, 50.085824 ], [ 19.952106, 50.087698 ], [ 19.959325, 50.092549 ], [ 19.966748, 50.096353 ], [ 19.968779, 50.09666 ], [ 19.97104, 50.097505 ], [ 19.977867, 50.101554 ], [ 19.986674, 50.104783 ], [ 19.981358, 50.105566 ], [ 19.980716, 50.104959 ], [ 19.979004, 50.105822 ], [ 19.977497, 50.105869 ], [ 19.97562, 50.106403 ], [ 19.972144, 50.106829 ], [ 19.970255, 50.107349 ], [ 19.96824, 50.108516 ], [ 19.965829, 50.109205 ], [ 19.963283, 50.110214 ], [ 19.962532, 50.109573 ], [ 19.960424, 50.10848 ], [ 19.9581, 50.108322 ], [ 19.95731, 50.10939 ], [ 19.95744, 50.110594 ], [ 19.955896, 50.110515 ], [ 19.955292, 50.111219 ], [ 19.953676, 50.112483 ], [ 19.951195, 50.114074 ], [ 19.948759, 50.116543 ], [ 19.947333, 50.119337 ], [ 19.94319, 50.118824 ], [ 19.941311, 50.119038 ], [ 19.940171, 50.118925 ], [ 19.939824, 50.117193 ], [ 19.939973, 50.116245 ], [ 19.935263, 50.115531 ], [ 19.935428, 50.115155 ], [ 19.932617, 50.114484 ], [ 19.929409, 50.114119 ], [ 19.927736, 50.113507 ], [ 19.927286, 50.114621 ], [ 19.924941, 50.114072 ], [ 19.925739, 50.112399 ], [ 19.925422, 50.111798 ], [ 19.924444, 50.111301 ], [ 19.925358, 50.110118 ], [ 19.926027, 50.108115 ], [ 19.927206, 50.107276 ], [ 19.92763, 50.107367 ], [ 19.928, 50.107865 ], [ 19.929356, 50.107706 ], [ 19.929354, 50.108127 ], [ 19.927103, 50.110243 ], [ 19.927599, 50.11039 ], [ 19.928418, 50.110268 ], [ 19.931064, 50.108625 ], [ 19.931218, 50.107491 ], [ 19.930452, 50.106828 ], [ 19.92937, 50.106651 ], [ 19.930788, 50.104811 ], [ 19.928872, 50.10373 ], [ 19.928141, 50.104324 ], [ 19.928149, 50.104918 ], [ 19.92769, 50.105081 ], [ 19.927297, 50.104937 ], [ 19.926431, 50.104381 ], [ 19.926224, 50.104443 ], [ 19.923532, 50.103407 ], [ 19.92087, 50.102263 ], [ 19.921006, 50.102141 ], [ 19.918783, 50.101341 ], [ 19.91889, 50.100184 ], [ 19.915108, 50.100931 ], [ 19.914064, 50.10561 ], [ 19.912271, 50.109947 ], [ 19.90947, 50.115559 ], [ 19.90852, 50.118132 ], [ 19.904689, 50.122117 ], [ 19.902184, 50.123572 ], [ 19.901406, 50.124388 ], [ 19.901103, 50.125114 ], [ 19.900871, 50.125057 ], [ 19.900501, 50.125509 ], [ 19.898846, 50.125009 ], [ 19.898376, 50.125009 ], [ 19.89829, 50.125342 ], [ 19.899365, 50.125424 ], [ 19.899587, 50.125796 ], [ 19.89833, 50.125684 ], [ 19.898315, 50.126132 ], [ 19.892509, 50.126079 ], [ 19.89239, 50.125136 ], [ 19.892557, 50.124342 ], [ 19.891531, 50.12432 ], [ 19.891566, 50.124095 ], [ 19.890467, 50.124006 ], [ 19.890552, 50.123633 ], [ 19.891345, 50.12308 ], [ 19.891409, 50.122507 ], [ 19.88943, 50.122749 ], [ 19.886615, 50.122254 ], [ 19.884481, 50.122163 ], [ 19.881869, 50.121243 ], [ 19.880396, 50.120134 ], [ 19.878993, 50.118443 ], [ 19.878642, 50.117158 ], [ 19.876798, 50.113512 ], [ 19.876643, 50.112527 ], [ 19.875274, 50.111045 ], [ 19.867364, 50.107447 ], [ 19.863321, 50.10733 ], [ 19.861826, 50.105947 ] ] ] } },
{ "type": "Feature", "properties": { "id": "5", "name": "Krowodrza", "district_full_name": "Dzielnica V Krowodrza", "district_no": "V", "population_est": 2010 }, "geometry": { "type": "Polygon", "coordinates": [ [ [ 19.887238, 50.068743 ], [ 19.887949, 50.068017 ], [ 19.888083, 50.067571 ], [ 19.889705, 50.067097 ], [ 19.891086, 50.066477 ], [ 19.892157, 50.066294 ], [ 19.892241, 50.066447 ], [ 19.902471, 50.063189 ], [ 19.90238, 50.062984 ], [ 19.902709, 50.062898 ], [ 19.902664, 50.062598 ], [ 19.904219, 50.062357 ], [ 19.904284, 50.062536 ], [ 19.923985, 50.059416 ], [ 19.924586, 50.059459 ], [ 19.924675, 50.059157 ], [ 19.925512, 50.059224 ], [ 19.923769, 50.062606 ], [ 19.925391, 50.066875 ], [ 19.927533, 50.070117 ], [ 19.929711, 50.071392 ], [ 19.932934, 50.072957 ], [ 19.934428, 50.073341 ], [ 19.934698, 50.073188 ], [ 19.936997, 50.073492 ], [ 19.938111, 50.07348 ], [ 19.940306, 50.075297 ], [ 19.941017, 50.075585 ], [ 19.941054, 50.076049 ], [ 19.944759, 50.07731 ], [ 19.945159, 50.077334 ], [ 19.947363, 50.080977 ], [ 19.934148, 50.082561 ], [ 19.932528, 50.082629 ], [ 19.930096, 50.082655 ], [ 19.91832, 50.082202 ], [ 19.909343, 50.082445 ], [ 19.906192, 50.075897 ], [ 19.905832, 50.075803 ], [ 19.90397, 50.07027 ], [ 19.889362, 50.072329 ], [ 19.889105, 50.07187 ], [ 19.888079, 50.072275 ], [ 19.888029, 50.071289 ], [ 19.887518, 50.070959 ], [ 19.887687, 50.070711 ], [ 19.88742, 50.070443 ], [ 19.887238, 50.068743 ] ] ] } },
{ "type": "Feature", "properties": { "id": "6", "name": "Bronowice", "district_full_name": "Dzielnica VI Bronowice", "district_no": "VI", "population_est": 3236 }, "geometry": { "type": "Polygon", "coordinates": [ [ [ 19.834534, 50.088504 ], [ 19.835714, 50.08833 ], [ 19.836705, 50.088003 ], [ 19.838121, 50.086903 ], [ 19.838271, 50.086078 ], [ 19.837635, 50.085181 ], [ 19.837847, 50.084425 ], [ 19.838848, 50.083691 ], [ 19.839265, 50.082868 ], [ 19.841121, 50.081875 ], [ 19.842241, 50.080549 ], [ 19.844885, 50.078647 ], [ 19.845814, 50.078178 ], [ 19.847858, 50.077821 ], [ 19.852579, 50.077875 ], [ 19.854111, 50.077495 ], [ 19.855722, 50.07676 ], [ 19.858418, 50.07663 ], [ 19.86339, 50.073562 ], [ 19.86601, 50.073192 ], [ 19.867939, 50.072093 ], [ 19.87199, 50.07197 ], [ 19.873449, 50.071672 ], [ 19.875484, 50.070713 ], [ 19.879075, 50.069366 ], [ 19.881348, 50.068082 ], [ 19.882909, 50.067615 ], [ 19.884006, 50.067484 ], [ 19.88665, 50.067472 ], [ 19.887651, 50.067283 ], [ 19.888065, 50.067477 ], [ 19.887949, 50.068017 ], [ 19.887238, 50.068743 ], [ 19.88742, 50.070443 ], [ 19.887687, 50.070711 ], [ 19.887518, 50.070959 ], [ 19.888029, 50.071289 ], [ 19.888079, 50.072275 ], [ 19.889105, 50.07187 ], [ 19.889362, 50.072329 ], [ 19.90397, 50.07027 ], [ 19.905832, 50.075803 ], [ 19.906192, 50.075897 ], [ 19.909343, 50.082445 ], [ 19.9044, 50.082617 ], [ 19.899879, 50.083455 ], [ 19.896346, 50.083812 ], [ 19.891339, 50.083432 ], [ 19.891414, 50.086525 ], [ 19.892461, 50.087256 ], [ 19.892266, 50.087511 ], [ 19.89071, 50.08763 ], [ 19.887704, 50.088609 ], [ 19.8838, 50.090017 ], [ 19.878828, 50.092231 ], [ 19.876798, 50.093384 ], [ 19.873645, 50.095568 ], [ 19.868935, 50.097856 ], [ 19.867688, 50.099433 ], [ 19.861582, 50.092658 ], [ 19.858618, 50.093505 ], [ 19.856015, 50.093602 ], [ 19.851872, 50.094429 ], [ 19.850831, 50.094221 ], [ 19.84908, 50.093522 ], [ 19.846868, 50.093023 ], [ 19.844985, 50.092221 ], [ 19.843742, 50.092171 ], [ 19.843096, 50.092384 ], [ 19.841862, 50.091819 ], [ 19.840945, 50.091792 ], [ 19.84008, 50.091442 ], [ 19.839044, 50.090658 ], [ 19.838497, 50.090664 ], [ 19.838181, 50.090354 ], [ 19.837755, 50.090459 ], [ 19.836467, 50.089335 ], [ 19.835567, 50.089587 ], [ 19.834534, 50.088504 ] ] ] } },
{ "type": "Feature", "properties": { "id": "7", "name": "Zwierzyniec", "district_full_name": "Dzielnica VII Zwierzyniec", "district_no": "VII", "population_est": 5797 }, "geometry": { "type": "Polygon", "coordinates": [ [ [ 19.801697, 50.06921 ], [ 19.804608, 50.064549 ], [ 19.804526, 50.062102 ], [ 19.809293, 50.061 ], [ 19.809839, 50.059782 ], [ 19.810424, 50.059425 ], [ 19.810465, 50.059203 ], [ 19.810901, 50.059162 ], [ 19.811066, 50.058495 ], [ 19.812096, 50.058676 ], [ 19.812399, 50.058583 ], [ 19.812878, 50.058804 ], [ 19.814525, 50.059023 ], [ 19.814623, 50.059203 ], [ 19.81587, 50.059354 ], [ 19.819844, 50.058218 ], [ 19.822005, 50.058198 ], [ 19.821261, 50.05764 ], [ 19.820776, 50.056851 ], [ 19.820751, 50.055324 ], [ 19.820165, 50.054265 ], [ 19.820162, 50.053365 ], [ 19.819666, 50.052411 ], [ 19.819494, 50.051455 ], [ 19.818894, 50.05066 ], [ 19.818306, 50.050278 ], [ 19.817738, 50.049104 ], [ 19.813685, 50.045251 ], [ 19.811285, 50.043318 ], [ 19.810702, 50.041778 ], [ 19.81064, 50.040655 ], [ 19.81207, 50.040146 ], [ 19.812831, 50.039241 ], [ 19.812585, 50.03768 ], [ 19.813427, 50.035406 ], [ 19.814475, 50.034907 ], [ 19.815422, 50.033877 ], [ 19.816098, 50.033505 ], [ 19.818657, 50.032336 ], [ 19.821069, 50.031889 ], [ 19.824506, 50.032073 ], [ 19.826234, 50.03274 ], [ 19.826433, 50.033604 ], [ 19.826982, 50.034493 ], [ 19.828598, 50.035328 ], [ 19.831275, 50.035855 ], [ 19.835438, 50.036264 ], [ 19.837952, 50.037008 ], [ 19.841361, 50.03856 ], [ 19.845257, 50.041269 ], [ 19.847373, 50.042449 ], [ 19.848895, 50.042997 ], [ 19.851628, 50.043378 ], [ 19.861086, 50.043397 ], [ 19.865913, 50.043918 ], [ 19.869053, 50.043924 ], [ 19.870871, 50.043655 ], [ 19.872488, 50.043191 ], [ 19.87809, 50.039382 ], [ 19.879522, 50.038706 ], [ 19.882007, 50.038318 ], [ 19.884481, 50.038113 ], [ 19.887355, 50.038096 ], [ 19.895938, 50.038582 ], [ 19.898253, 50.039308 ], [ 19.899187, 50.039845 ], [ 19.90085, 50.04122 ], [ 19.904674, 50.045954 ], [ 19.906378, 50.048747 ], [ 19.907272, 50.049744 ], [ 19.908979, 50.050761 ], [ 19.909969, 50.051084 ], [ 19.911061, 50.051206 ], [ 19.915798, 50.051207 ], [ 19.921838, 50.051959 ], [ 19.924725, 50.052633 ], [ 19.928486, 50.054166 ], [ 19.927897, 50.054917 ], [ 19.928102, 50.05532 ], [ 19.927463, 50.055816 ], [ 19.925512, 50.059224 ], [ 19.924675, 50.059157 ], [ 19.924586, 50.059459 ], [ 19.923985, 50.059416 ], [ 19.904284, 50.062536 ], [ 19.904219, 50.062357 ], [ 19.902664, 50.062598 ], [ 19.902709, 50.062898 ], [ 19.90238, 50.062984 ], [ 19.902471, 50.063189 ], [ 19.892241, 50.066447 ], [ 19.892157, 50.066294 ], [ 19.891086, 50.066477 ], [ 19.889705, 50.067097 ], [ 19.888135, 50.067566 ], [ 19.887651, 50.067283 ], [ 19.88665, 50.067472 ], [ 19.883574, 50.067522 ], [ 19.88201, 50.067836 ], [ 19.880696, 50.068401 ], [ 19.879075, 50.069366 ], [ 19.87307, 50.071784 ], [ 19.87199, 50.07197 ], [ 19.867939, 50.072093 ], [ 19.86601, 50.073192 ], [ 19.863726, 50.073477 ], [ 19.862998, 50.073725 ], [ 19.858418, 50.07663 ], [ 19.855722, 50.07676 ], [ 19.854111, 50.077495 ], [ 19.852579, 50.077875 ], [ 19.847858, 50.077821 ], [ 19.845814, 50.078178 ], [ 19.844885, 50.078647 ], [ 19.842241, 50.080549 ], [ 19.841121, 50.081875 ], [ 19.839265, 50.082868 ], [ 19.838848, 50.083691 ], [ 19.837847, 50.084425 ], [ 19.837614, 50.084887 ], [ 19.838271, 50.086078 ], [ 19.838121, 50.086903 ], [ 19.836705, 50.088003 ], [ 19.835111, 50.088441 ], [ 19.834534, 50.088504 ], [ 19.834375, 50.088308 ], [ 19.831946, 50.088538 ], [ 19.829828, 50.088114 ], [ 19.829867, 50.087899 ], [ 19.829281, 50.087691 ], [ 19.827998, 50.0858 ], [ 19.825361, 50.08413 ], [ 19.823689, 50.083422 ], [ 19.823283, 50.082589 ], [ 19.819355, 50.081728 ], [ 19.818466, 50.081033 ], [ 19.817041, 50.080764 ], [ 19.816148, 50.080799 ], [ 19.81342, 50.080281 ], [ 19.81124, 50.080161 ], [ 19.809517, 50.079415 ], [ 19.808287, 50.078391 ], [ 19.80833, 50.077026 ], [ 19.805965, 50.072082 ], [ 19.805408, 50.071567 ], [ 19.801697, 50.06921 ] ] ] } },
{ "type": "Feature", "properties": { "id": "8", "name": "Dębniki", "district_full_name": "Dzielnica VIII Dębniki", "district_no": "VIII", "population_est": 9644 }, "geometry": { "type": "Polygon", "coordinates": [ [ [ 19.792238, 50.011808 ], [ 19.792721, 50.010218 ], [ 19.79434, 50.007211 ], [ 19.794687, 50.006051 ], [ 19.795177, 50.002774 ], [ 19.796631, 49.997372 ], [ 19.79606, 49.995807 ], [ 19.795666, 49.995284 ], [ 19.796174, 49.995135 ], [ 19.79645, 49.99456 ], [ 19.79832, 49.99532 ], [ 19.798788, 49.995965 ], [ 19.800005, 49.995782 ], [ 19.800777, 49.995482 ], [ 19.800662, 49.995315 ], [ 19.800943, 49.994958 ], [ 19.800612, 49.994813 ], [ 19.800889, 49.99399 ], [ 19.801365, 49.993907 ], [ 19.801711, 49.993431 ], [ 19.802232, 49.993371 ], [ 19.80277, 49.994116 ], [ 19.803862, 49.994326 ], [ 19.803936, 49.994058 ], [ 19.803512, 49.993518 ], [ 19.803614, 49.992961 ], [ 19.805987, 49.993026 ], [ 19.807417, 49.992576 ], [ 19.809535, 49.992169 ], [ 19.809557, 49.992922 ], [ 19.809826, 49.99312 ], [ 19.810354, 49.992956 ], [ 19.810579, 49.99337 ], [ 19.811229, 49.993714 ], [ 19.811366, 49.994027 ], [ 19.811013, 49.994434 ], [ 19.811612, 49.994357 ], [ 19.81217, 49.994693 ], [ 19.812656, 49.994775 ], [ 19.813058, 49.994739 ], [ 19.813034, 49.994536 ], [ 19.814025, 49.994314 ], [ 19.814755, 49.994406 ], [ 19.814213, 49.995121 ], [ 19.815155, 49.995812 ], [ 19.818333, 49.996452 ], [ 19.818425, 49.99676 ], [ 19.819345, 49.996994 ], [ 19.821942, 49.996765 ], [ 19.822441, 49.996242 ], [ 19.831608, 49.996039 ], [ 19.831677, 49.995939 ], [ 19.837073, 49.995531 ], [ 19.838099, 49.995024 ], [ 19.841157, 49.994813 ], [ 19.842664, 49.995036 ], [ 19.843113, 49.99478 ], [ 19.843918, 49.994773 ], [ 19.844043, 49.994502 ], [ 19.844681, 49.99472 ], [ 19.844799, 49.994591 ], [ 19.846301, 49.994557 ], [ 19.846862, 49.994738 ], [ 19.847392, 49.99475 ], [ 19.847684, 49.994608 ], [ 19.848386, 49.9949 ], [ 19.849013, 49.994873 ], [ 19.849534, 49.994671 ], [ 19.849244, 49.992674 ], [ 19.848254, 49.989986 ], [ 19.84878, 49.985188 ], [ 19.851708, 49.985438 ], [ 19.853368, 49.985357 ], [ 19.854484, 49.985514 ], [ 19.856673, 49.985496 ], [ 19.859864, 49.984718 ], [ 19.860733, 49.984609 ], [ 19.862394, 49.98471 ], [ 19.86303, 49.983889 ], [ 19.864461, 49.983176 ], [ 19.864492, 49.980141 ], [ 19.862442, 49.979826 ], [ 19.862497, 49.979285 ], [ 19.862285, 49.979256 ], [ 19.862378, 49.978632 ], [ 19.862943, 49.978617 ], [ 19.862985, 49.976569 ], [ 19.860698, 49.975908 ], [ 19.862171, 49.975172 ], [ 19.863343, 49.974827 ], [ 19.867669, 49.97448 ], [ 19.868932, 49.972483 ], [ 19.870242, 49.97183 ], [ 19.871398, 49.971673 ], [ 19.872453, 49.971705 ], [ 19.873915, 49.971419 ], [ 19.879436, 49.971453 ], [ 19.879692, 49.973545 ], [ 19.879977, 49.97405 ], [ 19.881037, 49.974723 ], [ 19.882181, 49.974942 ], [ 19.882949, 49.975638 ], [ 19.884695, 49.976111 ], [ 19.884879, 49.976562 ], [ 19.885441, 49.976931 ], [ 19.885133, 49.977965 ], [ 19.88543, 49.978072 ], [ 19.885448, 49.978331 ], [ 19.886115, 49.978549 ], [ 19.886003, 49.978766 ], [ 19.886513, 49.979186 ], [ 19.887296, 49.979371 ], [ 19.88747, 49.981037 ], [ 19.88881, 49.982707 ], [ 19.888881, 49.983333 ], [ 19.886269, 49.983123 ], [ 19.88626, 49.984413 ], [ 19.885767, 49.984714 ], [ 19.886963, 49.986495 ], [ 19.887079, 49.986612 ], [ 19.893201, 49.986931 ], [ 19.892788, 49.987581 ], [ 19.892979, 49.98847 ], [ 19.891905, 49.989082 ], [ 19.891838, 49.989996 ], [ 19.891518, 49.989923 ], [ 19.890141, 49.990402 ], [ 19.889919, 49.990834 ], [ 19.890177, 49.992187 ], [ 19.890212, 49.992284 ], [ 19.891489, 49.992368 ], [ 19.892554, 49.992328 ], [ 19.893086, 49.993229 ], [ 19.895067, 49.995115 ], [ 19.895542, 49.995922 ], [ 19.895551, 49.996341 ], [ 19.895825, 49.996098 ], [ 19.894928, 49.998308 ], [ 19.893976, 49.998268 ], [ 19.893969, 49.999751 ], [ 19.891753, 50.001153 ], [ 19.888822, 50.002676 ], [ 19.890029, 50.006814 ], [ 19.891412, 50.006999 ], [ 19.89202, 50.007692 ], [ 19.893796, 50.007707 ], [ 19.895491, 50.007571 ], [ 19.898579, 50.006642 ], [ 19.901624, 50.006485 ], [ 19.903003, 50.006548 ], [ 19.905053, 50.007191 ], [ 19.907464, 50.008761 ], [ 19.907046, 50.00943 ], [ 19.907791, 50.010308 ], [ 19.90751, 50.010776 ], [ 19.908856, 50.012972 ], [ 19.909871, 50.014141 ], [ 19.911127, 50.016442 ], [ 19.913598, 50.018873 ], [ 19.91366, 50.019593 ], [ 19.914364, 50.0206 ], [ 19.917333, 50.021694 ], [ 19.919554, 50.022206 ], [ 19.920693, 50.023074 ], [ 19.922304, 50.023282 ], [ 19.922099, 50.023477 ], [ 19.922493, 50.025306 ], [ 19.922038, 50.026558 ], [ 19.925273, 50.025841 ], [ 19.925359, 50.02536 ], [ 19.925777, 50.025214 ], [ 19.925812, 50.025769 ], [ 19.926862, 50.026773 ], [ 19.926517, 50.027322 ], [ 19.926858, 50.027871 ], [ 19.9268, 50.028161 ], [ 19.926295, 50.028459 ], [ 19.926131, 50.028843 ], [ 19.926424, 50.029182 ], [ 19.927197, 50.029588 ], [ 19.928465, 50.031837 ], [ 19.92723, 50.033343 ], [ 19.928628, 50.03418 ], [ 19.928704, 50.034519 ], [ 19.928172, 50.035098 ], [ 19.92858, 50.035849 ], [ 19.934834, 50.039356 ], [ 19.935224, 50.039775 ], [ 19.935605, 50.041035 ], [ 19.941015, 50.044088 ], [ 19.942064, 50.044833 ], [ 19.939659, 50.045033 ], [ 19.937798, 50.045776 ], [ 19.934983, 50.048686 ], [ 19.933129, 50.051359 ], [ 19.931651, 50.053962 ], [ 19.931381, 50.0542 ], [ 19.93076, 50.054372 ], [ 19.929807, 50.054452 ], [ 19.928486, 50.054166 ], [ 19.924725, 50.052633 ], [ 19.921838, 50.051959 ], [ 19.915798, 50.051207 ], [ 19.911061, 50.051206 ], [ 19.909969, 50.051084 ], [ 19.908979, 50.050761 ], [ 19.907272, 50.049744 ], [ 19.906378, 50.048747 ], [ 19.904674, 50.045954 ], [ 19.90085, 50.04122 ], [ 19.899187, 50.039845 ], [ 19.898253, 50.039308 ], [ 19.895938, 50.038582 ], [ 19.887355, 50.038096 ], [ 19.884481, 50.038113 ], [ 19.882007, 50.038318 ], [ 19.879522, 50.038706 ], [ 19.87809, 50.039382 ], [ 19.872488, 50.043191 ], [ 19.870871, 50.043655 ], [ 19.869053, 50.043924 ], [ 19.865913, 50.043918 ], [ 19.861086, 50.043397 ], [ 19.851628, 50.043378 ], [ 19.848895, 50.042997 ], [ 19.847373, 50.042449 ], [ 19.846282, 50.04187 ], [ 19.841361, 50.03856 ], [ 19.839192, 50.037483 ], [ 19.836731, 50.036574 ], [ 19.835438, 50.036264 ], [ 19.831275, 50.035855 ], [ 19.828598, 50.035328 ], [ 19.826982, 50.034493 ], [ 19.826433, 50.033604 ], [ 19.826234, 50.03274 ], [ 19.824506, 50.032073 ], [ 19.826326, 50.032405 ], [ 19.828951, 50.026916 ], [ 19.829102, 50.025813 ], [ 19.828927, 50.025246 ], [ 19.828687, 50.024719 ], [ 19.827708, 50.023755 ], [ 19.821824, 50.02088 ], [ 19.820326, 50.020464 ], [ 19.818585, 50.020366 ], [ 19.816158, 50.020958 ], [ 19.815177, 50.021512 ], [ 19.81235, 50.025427 ], [ 19.811592, 50.02585 ], [ 19.810316, 50.026374 ], [ 19.808669, 50.026565 ], [ 19.807116, 50.026434 ], [ 19.80591, 50.026088 ], [ 19.804302, 50.025231 ], [ 19.802629, 50.023651 ], [ 19.800874, 50.020312 ], [ 19.800432, 50.018291 ], [ 19.799267, 50.016809 ], [ 19.797553, 50.015608 ], [ 19.794732, 50.014849 ], [ 19.793857, 50.014396 ], [ 19.792648, 50.013069 ], [ 19.792238, 50.011808 ] ] ] } },
{ "type": "Feature", "properties": { "id": "9", "name": "Łagiewniki-Borek Fałęcki", "district_full_name": "Dzielnica IX Łagiewniki-Borek Fałęcki", "district_no": "IX", "population_est": 2056 }, "geometry": { "type": "Polygon", "coordinates": [ [ [ 19.907046, 50.00943 ], [ 19.907464, 50.008761 ], [ 19.908132, 50.009186 ], [ 19.909226, 50.009535 ], [ 19.913487, 50.009583 ], [ 19.914367, 50.009346 ], [ 19.915948, 50.008124 ], [ 19.91839, 50.007408 ], [ 19.919377, 50.007373 ], [ 19.921961, 50.007744 ], [ 19.926176, 50.007332 ], [ 19.929342, 50.007563 ], [ 19.932245, 50.007483 ], [ 19.932923, 50.007575 ], [ 19.932987, 50.007772 ], [ 19.935253, 50.007974 ], [ 19.935535, 50.006796 ], [ 19.935396, 50.005897 ], [ 19.935071, 50.005429 ], [ 19.933875, 50.004402 ], [ 19.933692, 50.00399 ], [ 19.932547, 50.00321 ], [ 19.930935, 50.00247 ], [ 19.932042, 50.002259 ], [ 19.933072, 50.00173 ], [ 19.932991, 50.00221 ], [ 19.933292, 50.002608 ], [ 19.934614, 50.002035 ], [ 19.939692, 50.002505 ], [ 19.939726, 50.002239 ], [ 19.940059, 50.002151 ], [ 19.940781, 50.002489 ], [ 19.94349, 50.005608 ], [ 19.944157, 50.005636 ], [ 19.943843, 50.005802 ], [ 19.944679, 50.005842 ], [ 19.945166, 50.006871 ], [ 19.943843, 50.010687 ], [ 19.944, 50.011617 ], [ 19.945051, 50.012656 ], [ 19.94497, 50.013438 ], [ 19.945115, 50.013441 ], [ 19.944834, 50.014878 ], [ 19.945081, 50.015368 ], [ 19.945585, 50.022512 ], [ 19.945486, 50.02384 ], [ 19.944295, 50.028513 ], [ 19.941052, 50.027638 ], [ 19.940638, 50.028233 ], [ 19.936838, 50.028896 ], [ 19.936433, 50.028546 ], [ 19.936134, 50.02861 ], [ 19.934131, 50.029726 ], [ 19.932419, 50.03027 ], [ 19.927584, 50.030216 ], [ 19.927197, 50.029588 ], [ 19.926424, 50.029182 ], [ 19.926131, 50.028843 ], [ 19.926295, 50.028459 ], [ 19.9268, 50.028161 ], [ 19.926858, 50.027871 ], [ 19.926517, 50.027322 ], [ 19.926862, 50.026773 ], [ 19.925812, 50.025769 ], [ 19.925777, 50.025214 ], [ 19.925359, 50.02536 ], [ 19.925273, 50.025841 ], [ 19.922038, 50.026558 ], [ 19.922493, 50.025306 ], [ 19.922099, 50.023477 ], [ 19.922304, 50.023282 ], [ 19.920693, 50.023074 ], [ 19.919554, 50.022206 ], [ 19.917333, 50.021694 ], [ 19.914364, 50.0206 ], [ 19.91366, 50.019593 ], [ 19.913598, 50.018873 ], [ 19.911675, 50.017054 ], [ 19.910678, 50.015809 ], [ 19.909871, 50.014141 ], [ 19.908856, 50.012972 ], [ 19.90751, 50.010776 ], [ 19.907791, 50.010308 ], [ 19.907046, 50.00943 ] ] ] } },
{ "type": "Feature", "properties": { "id": "10", "name": "Swoszowice", "district_full_name": "Dzielnica X Swoszowice", "district_no": "X", "population_est": 7857 }, "geometry": { "type": "Polygon", "coordinates": [ [ [ 19.885767, 49.984714 ], [ 19.88626, 49.984413 ], [ 19.886269, 49.983123 ], [ 19.888881, 49.983333 ], [ 19.88881, 49.982707 ], [ 19.88747, 49.981037 ], [ 19.887318, 49.98039 ], [ 19.887926, 49.980363 ], [ 19.888329, 49.98064 ], [ 19.891763, 49.980535 ], [ 19.891767, 49.980266 ], [ 19.894968, 49.980607 ], [ 19.895898, 49.980617 ], [ 19.895887, 49.980442 ], [ 19.896262, 49.980435 ], [ 19.898089, 49.980616 ], [ 19.899037, 49.981037 ], [ 19.90016, 49.981216 ], [ 19.901192, 49.981077 ], [ 19.901921, 49.981312 ], [ 19.905629, 49.981282 ], [ 19.907295, 49.981503 ], [ 19.908557, 49.981495 ], [ 19.909652, 49.981972 ], [ 19.909786, 49.981826 ], [ 19.912002, 49.981306 ], [ 19.912613, 49.980246 ], [ 19.913346, 49.979853 ], [ 19.918984, 49.979999 ], [ 19.925698, 49.981318 ], [ 19.926088, 49.980999 ], [ 19.927342, 49.980821 ], [ 19.927818, 49.980284 ], [ 19.927392, 49.980029 ], [ 19.927417, 49.979824 ], [ 19.927745, 49.979593 ], [ 19.928246, 49.979555 ], [ 19.928411, 49.979146 ], [ 19.929541, 49.979185 ], [ 19.931434, 49.978432 ], [ 19.93259, 49.978793 ], [ 19.932445, 49.978214 ], [ 19.932878, 49.978184 ], [ 19.933179, 49.977713 ], [ 19.932939, 49.977476 ], [ 19.932979, 49.976856 ], [ 19.933448, 49.976833 ], [ 19.933712, 49.976442 ], [ 19.934473, 49.976437 ], [ 19.934052, 49.975571 ], [ 19.937772, 49.974536 ], [ 19.937919, 49.974737 ], [ 19.938346, 49.974549 ], [ 19.938527, 49.974836 ], [ 19.939074, 49.97454 ], [ 19.93907, 49.974823 ], [ 19.939517, 49.974705 ], [ 19.939571, 49.975129 ], [ 19.94026, 49.975279 ], [ 19.940104, 49.974868 ], [ 19.940738, 49.974797 ], [ 19.94061, 49.974459 ], [ 19.942203, 49.974364 ], [ 19.942156, 49.974164 ], [ 19.942394, 49.974028 ], [ 19.943271, 49.973944 ], [ 19.942927, 49.973676 ], [ 19.942852, 49.973338 ], [ 19.943774, 49.972845 ], [ 19.944443, 49.97306 ], [ 19.944616, 49.972704 ], [ 19.944925, 49.972612 ], [ 19.944917, 49.972214 ], [ 19.945978, 49.972282 ], [ 19.946597, 49.972089 ], [ 19.94765, 49.972292 ], [ 19.94833, 49.972073 ], [ 19.948967, 49.971296 ], [ 19.949459, 49.971361 ], [ 19.95069, 49.97108 ], [ 19.950571, 49.970705 ], [ 19.951222, 49.970638 ], [ 19.951137, 49.970381 ], [ 19.950769, 49.970237 ], [ 19.95084, 49.969858 ], [ 19.951715, 49.969518 ], [ 19.952016, 49.969561 ], [ 19.952108, 49.970102 ], [ 19.952972, 49.969843 ], [ 19.953311, 49.970115 ], [ 19.953798, 49.970075 ], [ 19.954114, 49.969469 ], [ 19.955002, 49.969151 ], [ 19.955209, 49.968675 ], [ 19.955716, 49.968655 ], [ 19.955388, 49.967709 ], [ 19.955673, 49.967665 ], [ 19.956155, 49.967708 ], [ 19.95617, 49.968032 ], [ 19.956622, 49.968246 ], [ 19.957183, 49.968253 ], [ 19.957531, 49.967874 ], [ 19.957602, 49.968059 ], [ 19.957276, 49.96825 ], [ 19.957451, 49.968375 ], [ 19.958623, 49.968274 ], [ 19.9587, 49.968368 ], [ 19.958869, 49.968245 ], [ 19.95888, 49.968576 ], [ 19.959305, 49.968746 ], [ 19.959462, 49.96926 ], [ 19.960512, 49.968915 ], [ 19.961599, 49.968945 ], [ 19.961498, 49.968436 ], [ 19.961678, 49.968325 ], [ 19.962478, 49.968418 ], [ 19.962568, 49.968668 ], [ 19.963445, 49.968562 ], [ 19.962891, 49.971052 ], [ 19.963094, 49.972323 ], [ 19.964896, 49.973022 ], [ 19.96704, 49.973164 ], [ 19.967055, 49.973746 ], [ 19.965949, 49.97549 ], [ 19.965599, 49.976478 ], [ 19.96485, 49.977583 ], [ 19.9643, 49.977747 ], [ 19.965236, 49.977894 ], [ 19.965623, 49.978433 ], [ 19.966377, 49.978341 ], [ 19.966536, 49.978746 ], [ 19.966842, 49.978856 ], [ 19.96728, 49.978755 ], [ 19.968432, 49.979031 ], [ 19.968959, 49.979489 ], [ 19.969261, 49.97943 ], [ 19.969501, 49.979598 ], [ 19.969955, 49.97952 ], [ 19.970943, 49.979967 ], [ 19.971677, 49.979822 ], [ 19.972091, 49.980131 ], [ 19.972294, 49.98 ], [ 19.973567, 49.980366 ], [ 19.974401, 49.980391 ], [ 19.975643, 49.98085 ], [ 19.975882, 49.980749 ], [ 19.976176, 49.980874 ], [ 19.976959, 49.980791 ], [ 19.977108, 49.981008 ], [ 19.977862, 49.981171 ], [ 19.98045, 49.980942 ], [ 19.982221, 49.981034 ], [ 19.982587, 49.9807 ], [ 19.982591, 49.980189 ], [ 19.982056, 49.979631 ], [ 19.981956, 49.978981 ], [ 19.981378, 49.978234 ], [ 19.981744, 49.977429 ], [ 19.982235, 49.977114 ], [ 19.982261, 49.976093 ], [ 19.982153, 49.975193 ], [ 19.981073, 49.973217 ], [ 19.981279, 49.972631 ], [ 19.983783, 49.972594 ], [ 19.987044, 49.973043 ], [ 19.990084, 49.973003 ], [ 19.997279, 49.973944 ], [ 19.997985, 49.974079 ], [ 19.998064, 49.974302 ], [ 19.999309, 49.974814 ], [ 19.999778, 49.974856 ], [ 20.001126, 49.975684 ], [ 20.003391, 49.975154 ], [ 20.002901, 49.974676 ], [ 20.006872, 49.974761 ], [ 20.008094, 49.975043 ], [ 20.008223, 49.975083 ], [ 20.007673, 49.975408 ], [ 20.008239, 49.975964 ], [ 20.009074, 49.976177 ], [ 20.00917, 49.976098 ], [ 20.010016, 49.977244 ], [ 20.009702, 49.980182 ], [ 20.011337, 49.980865 ], [ 20.013762, 49.982291 ], [ 20.016021, 49.984379 ], [ 20.018604, 49.985863 ], [ 20.018672, 49.986317 ], [ 20.017823, 49.987198 ], [ 20.015879, 49.988375 ], [ 20.015428, 49.988851 ], [ 20.014707, 49.990484 ], [ 20.013915, 49.991352 ], [ 20.013404, 49.993456 ], [ 20.012721, 49.993848 ], [ 20.012233, 49.994684 ], [ 20.01099, 49.995278 ], [ 20.01027, 49.995162 ], [ 20.008499, 49.995533 ], [ 20.007086, 49.996463 ], [ 20.0052, 49.997038 ], [ 20.004777, 49.997125 ], [ 20.004425, 49.996972 ], [ 20.0044, 49.997241 ], [ 20.004015, 49.997485 ], [ 20.004138, 49.997598 ], [ 20.003254, 49.998007 ], [ 20.002761, 49.999235 ], [ 20.003479, 49.999827 ], [ 20.003518, 50.000389 ], [ 20.004144, 50.001187 ], [ 20.003941, 50.001387 ], [ 20.001259, 50.001327 ], [ 20.001201, 50.001139 ], [ 19.999167, 50.0008 ], [ 19.995268, 50.000538 ], [ 19.993718, 50.000244 ], [ 19.992149, 50.000406 ], [ 19.991684, 50.000062 ], [ 19.991502, 50.000187 ], [ 19.990183, 50.000313 ], [ 19.98848, 50.000303 ], [ 19.986945, 50.000105 ], [ 19.983036, 50.000319 ], [ 19.982786, 50.000201 ], [ 19.982523, 50.00054 ], [ 19.981976, 50.00077 ], [ 19.973245, 50.001137 ], [ 19.972717, 50.001338 ], [ 19.972719, 50.00106 ], [ 19.972103, 50.000843 ], [ 19.97185, 50.001194 ], [ 19.970263, 50.000903 ], [ 19.969765, 50.001408 ], [ 19.969094, 50.001567 ], [ 19.967229, 50.001467 ], [ 19.967231, 50.001584 ], [ 19.96218, 50.000858 ], [ 19.962395, 50.000296 ], [ 19.96161, 50.000295 ], [ 19.961328, 50.000167 ], [ 19.961268, 50.000278 ], [ 19.955401, 49.999948 ], [ 19.951772, 49.999921 ], [ 19.946704, 50.000404 ], [ 19.94676, 50.00023 ], [ 19.945025, 50.000474 ], [ 19.94518, 50.000023 ], [ 19.942711, 50.000353 ], [ 19.94157, 50.000343 ], [ 19.93952, 49.999819 ], [ 19.939447, 49.999597 ], [ 19.938232, 49.999833 ], [ 19.93724, 50.000302 ], [ 19.936256, 50.00025 ], [ 19.935776, 50.000736 ], [ 19.935376, 50.000694 ], [ 19.934764, 50.000203 ], [ 19.935164, 50.001201 ], [ 19.934773, 50.002064 ], [ 19.933986, 50.002226 ], [ 19.933292, 50.002608 ], [ 19.932991, 50.00221 ], [ 19.933072, 50.00173 ], [ 19.932042, 50.002259 ], [ 19.930935, 50.00247 ], [ 19.932547, 50.00321 ], [ 19.933692, 50.00399 ], [ 19.933875, 50.004402 ], [ 19.935071, 50.005429 ], [ 19.935396, 50.005897 ], [ 19.935535, 50.006796 ], [ 19.935253, 50.007974 ], [ 19.932987, 50.007772 ], [ 19.932923, 50.007575 ], [ 19.932245, 50.007483 ], [ 19.929342, 50.007563 ], [ 19.926176, 50.007332 ], [ 19.921961, 50.007744 ], [ 19.919377, 50.007373 ], [ 19.91839, 50.007408 ], [ 19.915948, 50.008124 ], [ 19.914069, 50.00947 ], [ 19.913175, 50.009599 ], [ 19.909708, 50.009569 ], [ 19.908991, 50.009492 ], [ 19.908132, 50.009186 ], [ 19.905053, 50.007191 ], [ 19.903003, 50.006548 ], [ 19.901624, 50.006485 ], [ 19.898579, 50.006642 ], [ 19.895491, 50.007571 ], [ 19.893796, 50.007707 ], [ 19.89202, 50.007692 ], [ 19.891412, 50.006999 ], [ 19.890029, 50.006814 ], [ 19.888822, 50.002676 ], [ 19.891753, 50.001153 ], [ 19.893969, 49.999751 ], [ 19.893976, 49.998268 ], [ 19.894928, 49.998308 ], [ 19.895825, 49.996098 ], [ 19.895551, 49.996341 ], [ 19.895542, 49.995922 ], [ 19.895067, 49.995115 ], [ 19.893086, 49.993229 ], [ 19.892554, 49.992328 ], [ 19.891489, 49.992368 ], [ 19.890212, 49.992284 ], [ 19.890177, 49.992187 ], [ 19.889919, 49.990834 ], [ 19.890141, 49.990402 ], [ 19.891518, 49.989923 ], [ 19.891838, 49.989996 ], [ 19.891905, 49.989082 ], [ 19.892979, 49.98847 ], [ 19.892788, 49.987581 ], [ 19.893201, 49.986931 ], [ 19.887079, 49.986612 ], [ 19.885767, 49.984714 ] ] ] } },
{ "type": "Feature", "properties": { "id": "11", "name": "Podgórze Duchackie", "district_full_name": "Dzielnica XI Podgórze Duchackie", "district_no": "XI", "population_est": 3552 }, "geometry": { "type": "Polygon", "coordinates": [ [ [ 19.934764, 50.000203 ], [ 19.935376, 50.000694 ], [ 19.935776, 50.000736 ], [ 19.936256, 50.00025 ], [ 19.93724, 50.000302 ], [ 19.938232, 49.999833 ], [ 19.939447, 49.999597 ], [ 19.93952, 49.999819 ], [ 19.94157, 50.000343 ], [ 19.942711, 50.000353 ], [ 19.94518, 50.000023 ], [ 19.945025, 50.000474 ], [ 19.94676, 50.00023 ], [ 19.946704, 50.000404 ], [ 19.951772, 49.999921 ], [ 19.955401, 49.999948 ], [ 19.961268, 50.000278 ], [ 19.961328, 50.000167 ], [ 19.96161, 50.000295 ], [ 19.962395, 50.000296 ], [ 19.96218, 50.000858 ], [ 19.967231, 50.001584 ], [ 19.967229, 50.001467 ], [ 19.969094, 50.001567 ], [ 19.969765, 50.001408 ], [ 19.970263, 50.000903 ], [ 19.97185, 50.001194 ], [ 19.972103, 50.000843 ], [ 19.972719, 50.00106 ], [ 19.972717, 50.001338 ], [ 19.973245, 50.001137 ], [ 19.981976, 50.00077 ], [ 19.982523, 50.00054 ], [ 19.982786, 50.000201 ], [ 19.983036, 50.000319 ], [ 19.986945, 50.000105 ], [ 19.98848, 50.000303 ], [ 19.990183, 50.000313 ], [ 19.991502, 50.000187 ], [ 19.991684, 50.000062 ], [ 19.992149, 50.000406 ], [ 19.993718, 50.000244 ], [ 19.995268, 50.000538 ], [ 19.998677, 50.000748 ], [ 20.001201, 50.001139 ], [ 20.001259, 50.001327 ], [ 20.000071, 50.0014 ], [ 20.000662, 50.002029 ], [ 20.000157, 50.002165 ], [ 20.000214, 50.002347 ], [ 20.001699, 50.00267 ], [ 20.003196, 50.003403 ], [ 20.001629, 50.003831 ], [ 20.001272, 50.004749 ], [ 20.000661, 50.00539 ], [ 19.998224, 50.007034 ], [ 19.996697, 50.008352 ], [ 19.992537, 50.010168 ], [ 19.992401, 50.01038 ], [ 19.991516, 50.010615 ], [ 19.991579, 50.01078 ], [ 19.990706, 50.011262 ], [ 19.990646, 50.012009 ], [ 19.990237, 50.012341 ], [ 19.990955, 50.012921 ], [ 19.990817, 50.013293 ], [ 19.991173, 50.013429 ], [ 19.992386, 50.013244 ], [ 19.991794, 50.01365 ], [ 19.991057, 50.014521 ], [ 19.991207, 50.015441 ], [ 19.989789, 50.014944 ], [ 19.988446, 50.014889 ], [ 19.98661, 50.015091 ], [ 19.984723, 50.014933 ], [ 19.978209, 50.014905 ], [ 19.977877, 50.015061 ], [ 19.974317, 50.015281 ], [ 19.972693, 50.015584 ], [ 19.972743, 50.015975 ], [ 19.976206, 50.016803 ], [ 19.97679, 50.017198 ], [ 19.977164, 50.017798 ], [ 19.977125, 50.022385 ], [ 19.977516, 50.022912 ], [ 19.978892, 50.023957 ], [ 19.976301, 50.025536 ], [ 19.974157, 50.02608 ], [ 19.97378, 50.025967 ], [ 19.973427, 50.026229 ], [ 19.971209, 50.026608 ], [ 19.966074, 50.026978 ], [ 19.966037, 50.027082 ], [ 19.959493, 50.028384 ], [ 19.959087, 50.028292 ], [ 19.959227, 50.027896 ], [ 19.958909, 50.02782 ], [ 19.958033, 50.028387 ], [ 19.95808, 50.028527 ], [ 19.952468, 50.029741 ], [ 19.950421, 50.030383 ], [ 19.948334, 50.031471 ], [ 19.948379, 50.031612 ], [ 19.947583, 50.03236 ], [ 19.946972, 50.032663 ], [ 19.946912, 50.031888 ], [ 19.946128, 50.029815 ], [ 19.945419, 50.029078 ], [ 19.944295, 50.028513 ], [ 19.945486, 50.02384 ], [ 19.945585, 50.022512 ], [ 19.945081, 50.015368 ], [ 19.944834, 50.014878 ], [ 19.945115, 50.013441 ], [ 19.94497, 50.013438 ], [ 19.945051, 50.012656 ], [ 19.944, 50.011617 ], [ 19.943843, 50.010687 ], [ 19.945131, 50.006754 ], [ 19.944679, 50.005842 ], [ 19.943843, 50.005802 ], [ 19.944157, 50.005636 ], [ 19.94349, 50.005608 ], [ 19.940781, 50.002489 ], [ 19.940059, 50.002151 ], [ 19.939726, 50.002239 ], [ 19.939692, 50.002505 ], [ 19.934773, 50.002064 ], [ 19.935164, 50.001201 ], [ 19.934764, 50.000203 ] ] ] } },
{ "type": "Feature", "properties": { "id": "12", "name": "Bieżanów-Prokocim", "district_full_name": "Dzielnica XII Bieżanów-Prokocim", "district_no": "XII", "population_est": 4954 }, "geometry": { "type": "Polygon", "coordinates": [ [ [ 19.972693, 50.015584 ], [ 19.974317, 50.015281 ], [ 19.977877, 50.015061 ], [ 19.978209, 50.014905 ], [ 19.984723, 50.014933 ], [ 19.98661, 50.015091 ], [ 19.988446, 50.014889 ], [ 19.989789, 50.014944 ], [ 19.991207, 50.015441 ], [ 19.991057, 50.014521 ], [ 19.991794, 50.01365 ], [ 19.992386, 50.013244 ], [ 19.991173, 50.013429 ], [ 19.990817, 50.013293 ], [ 19.990955, 50.012921 ], [ 19.990237, 50.012341 ], [ 19.990646, 50.012009 ], [ 19.990706, 50.011262 ], [ 19.991579, 50.01078 ], [ 19.991516, 50.010615 ], [ 19.992401, 50.01038 ], [ 19.992537, 50.010168 ], [ 19.996697, 50.008352 ], [ 19.998224, 50.007034 ], [ 20.000661, 50.00539 ], [ 20.001272, 50.004749 ], [ 20.001629, 50.003831 ], [ 20.003196, 50.003403 ], [ 20.001313, 50.00254 ], [ 20.000397, 50.002473 ], [ 20.000157, 50.002165 ], [ 20.000662, 50.002029 ], [ 20.000071, 50.0014 ], [ 20.002291, 50.001285 ], [ 20.003941, 50.001387 ], [ 20.00426, 50.001168 ], [ 20.006114, 50.001964 ], [ 20.006307, 50.002488 ], [ 20.010535, 50.003327 ], [ 20.013271, 50.003711 ], [ 20.016731, 50.003948 ], [ 20.017477, 50.004242 ], [ 20.018281, 50.004326 ], [ 20.018814, 50.003115 ], [ 20.022153, 50.003252 ], [ 20.023595, 50.003015 ], [ 20.028484, 49.999179 ], [ 20.029195, 49.999289 ], [ 20.029321, 49.999625 ], [ 20.029181, 50.000408 ], [ 20.028797, 50.000917 ], [ 20.028894, 50.001102 ], [ 20.031008, 50.000917 ], [ 20.035753, 50.00141 ], [ 20.037723, 50.001003 ], [ 20.039157, 49.999829 ], [ 20.04398, 49.999151 ], [ 20.046771, 49.999152 ], [ 20.047587, 49.999001 ], [ 20.047968, 49.999091 ], [ 20.047734, 50.000071 ], [ 20.0478, 50.001768 ], [ 20.048284, 50.004169 ], [ 20.049604, 50.004293 ], [ 20.051616, 50.003825 ], [ 20.053894, 50.004102 ], [ 20.055168, 50.004113 ], [ 20.05516, 50.004597 ], [ 20.057285, 50.004708 ], [ 20.058287, 50.005657 ], [ 20.060753, 50.005332 ], [ 20.061385, 50.005832 ], [ 20.061593, 50.005784 ], [ 20.061818, 50.006251 ], [ 20.062331, 50.006322 ], [ 20.062561, 50.006841 ], [ 20.062354, 50.007615 ], [ 20.062922, 50.008083 ], [ 20.063321, 50.008186 ], [ 20.064333, 50.008095 ], [ 20.065667, 50.007787 ], [ 20.06626, 50.009028 ], [ 20.066764, 50.009147 ], [ 20.067222, 50.009536 ], [ 20.067879, 50.0117 ], [ 20.067658, 50.013088 ], [ 20.06803, 50.014077 ], [ 20.069067, 50.015718 ], [ 20.069757, 50.018346 ], [ 20.068433, 50.021995 ], [ 20.067164, 50.022188 ], [ 20.064865, 50.02427 ], [ 20.067688, 50.025449 ], [ 20.069093, 50.027118 ], [ 20.072277, 50.029764 ], [ 20.072797, 50.030846 ], [ 20.072821, 50.031435 ], [ 20.062756, 50.033839 ], [ 20.057754, 50.033705 ], [ 20.052916, 50.034426 ], [ 20.047356, 50.033959 ], [ 20.039529, 50.034018 ], [ 20.037809, 50.034297 ], [ 20.035949, 50.034963 ], [ 20.035015, 50.035112 ], [ 20.033709, 50.035059 ], [ 20.030817, 50.034171 ], [ 20.029379, 50.034105 ], [ 20.029149, 50.033307 ], [ 20.029711, 50.03163 ], [ 20.029688, 50.030737 ], [ 20.029565, 50.030056 ], [ 20.027842, 50.028472 ], [ 20.028052, 50.027143 ], [ 20.027948, 50.02532 ], [ 20.026245, 50.02573 ], [ 20.024209, 50.025682 ], [ 20.022713, 50.02589 ], [ 20.01982, 50.02651 ], [ 20.015249, 50.027838 ], [ 20.014359, 50.027973 ], [ 20.014832, 50.028148 ], [ 20.01455, 50.028331 ], [ 20.014103, 50.02801 ], [ 20.013652, 50.028028 ], [ 20.004879, 50.029431 ], [ 19.999698, 50.029706 ], [ 19.996431, 50.030165 ], [ 19.996454, 50.030378 ], [ 19.99198, 50.030836 ], [ 19.992052, 50.030381 ], [ 19.986797, 50.026964 ], [ 19.98609, 50.026831 ], [ 19.98511, 50.026358 ], [ 19.985526, 50.025957 ], [ 19.984899, 50.025758 ], [ 19.984478, 50.026061 ], [ 19.984182, 50.025956 ], [ 19.98371, 50.026543 ], [ 19.98326, 50.026395 ], [ 19.982937, 50.026733 ], [ 19.981932, 50.027079 ], [ 19.981108, 50.026587 ], [ 19.978472, 50.025875 ], [ 19.977381, 50.026959 ], [ 19.976659, 50.026723 ], [ 19.977425, 50.02599 ], [ 19.97651, 50.025413 ], [ 19.978892, 50.023957 ], [ 19.977516, 50.022912 ], [ 19.977125, 50.022385 ], [ 19.977164, 50.017798 ], [ 19.97679, 50.017198 ], [ 19.976206, 50.016803 ], [ 19.972743, 50.015975 ], [ 19.972693, 50.015584 ] ] ] } },
{ "type": "Feature", "properties": { "id": "13", "name": "Podgórze", "district_full_name": "Dzielnica XIII Podgórze", "district_no": "XIII", "population_est": 4659 }, "geometry": { "type": "Polygon", "coordinates": [ [ [ 19.92723, 50.033343 ], [ 19.928465, 50.031837 ], [ 19.927584, 50.030216 ], [ 19.932419, 50.03027 ], [ 19.934131, 50.029726 ], [ 19.936134, 50.02861 ], [ 19.936433, 50.028546 ], [ 19.936838, 50.028896 ], [ 19.940638, 50.028233 ], [ 19.941052, 50.027638 ], [ 19.944209, 50.02848 ], [ 19.945419, 50.029078 ], [ 19.946318, 50.030181 ], [ 19.946912, 50.031888 ], [ 19.946972, 50.032663 ], [ 19.947583, 50.03236 ], [ 19.948379, 50.031612 ], [ 19.948334, 50.031471 ], [ 19.950421, 50.030383 ], [ 19.952468, 50.029741 ], [ 19.95808, 50.028527 ], [ 19.958033, 50.028387 ], [ 19.958909, 50.02782 ], [ 19.959227, 50.027896 ], [ 19.959087, 50.028292 ], [ 19.959493, 50.028384 ], [ 19.966037, 50.027082 ], [ 19.966074, 50.026978 ], [ 19.969831, 50.026669 ], [ 19.97015, 50.02675 ], [ 19.972083, 50.026469 ], [ 19.973493, 50.02621 ], [ 19.97378, 50.025967 ], [ 19.974157, 50.02608 ], [ 19.975626, 50.025737 ], [ 19.97651, 50.025413 ], [ 19.977425, 50.02599 ], [ 19.976659, 50.026723 ], [ 19.977381, 50.026959 ], [ 19.978472, 50.025875 ], [ 19.981108, 50.026587 ], [ 19.981932, 50.027079 ], [ 19.982937, 50.026733 ], [ 19.98326, 50.026395 ], [ 19.98371, 50.026543 ], [ 19.984182, 50.025956 ], [ 19.984478, 50.026061 ], [ 19.984899, 50.025758 ], [ 19.985526, 50.025957 ], [ 19.98511, 50.026358 ], [ 19.98609, 50.026831 ], [ 19.986797, 50.026964 ], [ 19.992052, 50.030381 ], [ 19.99198, 50.030836 ], [ 19.996454, 50.030378 ], [ 19.996431, 50.030165 ], [ 19.999698, 50.029706 ], [ 20.004879, 50.029431 ], [ 20.013652, 50.028028 ], [ 20.014103, 50.02801 ], [ 20.01455, 50.028331 ], [ 20.014832, 50.028148 ], [ 20.014359, 50.027973 ], [ 20.015249, 50.027838 ], [ 20.01982, 50.02651 ], [ 20.022713, 50.02589 ], [ 20.024209, 50.025682 ], [ 20.026245, 50.02573 ], [ 20.027948, 50.02532 ], [ 20.028052, 50.027143 ], [ 20.027842, 50.028472 ], [ 20.029565, 50.030056 ], [ 20.029688, 50.030737 ], [ 20.029711, 50.03163 ], [ 20.029149, 50.033307 ], [ 20.029379, 50.034105 ], [ 20.030817, 50.034171 ], [ 20.0331, 50.034964 ], [ 20.035015, 50.035112 ], [ 20.036391, 50.03486 ], [ 20.037809, 50.034297 ], [ 20.039529, 50.034018 ], [ 20.047356, 50.033959 ], [ 20.052916, 50.034426 ], [ 20.057754, 50.033705 ], [ 20.062756, 50.033839 ], [ 20.072821, 50.031435 ], [ 20.073541, 50.032187 ], [ 20.074667, 50.032589 ], [ 20.078769, 50.033689 ], [ 20.081707, 50.03426 ], [ 20.081629, 50.03468 ], [ 20.080814, 50.035028 ], [ 20.079731, 50.035801 ], [ 20.082364, 50.036905 ], [ 20.083306, 50.037741 ], [ 20.083807, 50.037897 ], [ 20.083382, 50.038293 ], [ 20.081989, 50.038914 ], [ 20.081014, 50.038713 ], [ 20.080324, 50.040704 ], [ 20.081062, 50.040647 ], [ 20.081354, 50.040863 ], [ 20.081702, 50.040781 ], [ 20.082306, 50.041282 ], [ 20.083541, 50.041486 ], [ 20.085619, 50.042961 ], [ 20.086164, 50.043772 ], [ 20.086889, 50.044022 ], [ 20.087248, 50.04455 ], [ 20.088005, 50.044898 ], [ 20.089012, 50.044854 ], [ 20.089293, 50.044435 ], [ 20.089632, 50.044382 ], [ 20.09087, 50.043654 ], [ 20.091708, 50.042616 ], [ 20.091636, 50.042245 ], [ 20.091774, 50.042308 ], [ 20.091834, 50.042156 ], [ 20.092283, 50.042072 ], [ 20.092339, 50.041781 ], [ 20.091644, 50.040252 ], [ 20.091694, 50.038686 ], [ 20.092176, 50.03802 ], [ 20.094019, 50.03715 ], [ 20.095961, 50.036958 ], [ 20.098011, 50.037279 ], [ 20.099364, 50.037805 ], [ 20.103188, 50.041184 ], [ 20.100697, 50.041316 ], [ 20.098081, 50.041796 ], [ 20.09556, 50.043022 ], [ 20.094378, 50.044424 ], [ 20.094159, 50.04532 ], [ 20.094455, 50.047613 ], [ 20.093992, 50.048848 ], [ 20.093129, 50.049981 ], [ 20.091683, 50.051323 ], [ 20.0902, 50.05217 ], [ 20.088348, 50.052752 ], [ 20.086656, 50.053061 ], [ 20.082946, 50.052717 ], [ 20.077531, 50.051724 ], [ 20.069892, 50.050659 ], [ 20.066158, 50.050399 ], [ 20.058863, 50.050569 ], [ 20.057242, 50.050763 ], [ 20.052269, 50.051882 ], [ 20.050569, 50.05207 ], [ 20.049404, 50.052037 ], [ 20.048342, 50.051914 ], [ 20.045857, 50.051273 ], [ 20.040394, 50.048449 ], [ 20.038487, 50.047966 ], [ 20.037048, 50.047834 ], [ 20.035754, 50.047843 ], [ 20.032262, 50.048444 ], [ 20.030283, 50.049134 ], [ 20.027363, 50.050792 ], [ 20.025894, 50.051383 ], [ 20.024425, 50.051693 ], [ 20.022829, 50.051681 ], [ 20.021423, 50.05129 ], [ 20.020089, 50.050602 ], [ 20.01809, 50.04862 ], [ 20.016982, 50.04658 ], [ 20.01585, 50.045539 ], [ 20.015155, 50.045193 ], [ 20.014094, 50.044952 ], [ 20.011181, 50.045031 ], [ 20.008611, 50.045752 ], [ 20.00552, 50.046984 ], [ 20.003204, 50.048175 ], [ 20.00109, 50.049508 ], [ 19.99926, 50.051133 ], [ 19.996515, 50.056045 ], [ 19.99561, 50.056933 ], [ 19.993958, 50.058001 ], [ 19.991396, 50.059271 ], [ 19.990301, 50.059568 ], [ 19.988433, 50.059822 ], [ 19.98685, 50.059855 ], [ 19.985273, 50.059621 ], [ 19.984225, 50.059097 ], [ 19.982333, 50.057595 ], [ 19.981085, 50.05587 ], [ 19.980203, 50.055126 ], [ 19.978948, 50.054264 ], [ 19.977016, 50.053524 ], [ 19.972338, 50.052307 ], [ 19.970621, 50.052218 ], [ 19.967209, 50.052734 ], [ 19.964238, 50.052867 ], [ 19.962786, 50.05281 ], [ 19.96009, 50.052355 ], [ 19.95637, 50.051026 ], [ 19.948194, 50.046734 ], [ 19.944136, 50.045132 ], [ 19.942064, 50.044833 ], [ 19.941015, 50.044088 ], [ 19.935605, 50.041035 ], [ 19.935224, 50.039775 ], [ 19.934834, 50.039356 ], [ 19.92858, 50.035849 ], [ 19.928172, 50.035098 ], [ 19.928704, 50.034519 ], [ 19.928628, 50.03418 ], [ 19.92723, 50.033343 ] ] ] } },
{ "type": "Feature", "properties": { "id": "14", "name": "Czyżyny", "district_full_name": "Dzielnica XIV Czyżyny", "district_no": "XIV", "population_est": 1461 }, "geometry": { "type": "Polygon", "coordinates": [ [ [ 19.979515, 50.086045 ], [ 19.982456, 50.086266 ], [ 19.982342, 50.085543 ], [ 19.983952, 50.085539 ], [ 19.984527, 50.085339 ], [ 19.985578, 50.084523 ], [ 19.986425, 50.084316 ], [ 19.986782, 50.083705 ], [ 19.986183, 50.083719 ], [ 19.986489, 50.083174 ], [ 19.987178, 50.083401 ], [ 19.987633, 50.083313 ], [ 19.987947, 50.082747 ], [ 19.988268, 50.082595 ], [ 19.989394, 50.080517 ], [ 19.987641, 50.080104 ], [ 19.987239, 50.079666 ], [ 19.988628, 50.077154 ], [ 19.989344, 50.07658 ], [ 19.989061, 50.076073 ], [ 19.988135, 50.075596 ], [ 19.988509, 50.073267 ], [ 19.987419, 50.073209 ], [ 19.987101, 50.07254 ], [ 19.986259, 50.072668 ], [ 19.985871, 50.072583 ], [ 19.985448, 50.072166 ], [ 19.985827, 50.071862 ], [ 19.985453, 50.071547 ], [ 19.985276, 50.071573 ], [ 19.98417, 50.070556 ], [ 19.986906, 50.069159 ], [ 19.988065, 50.068196 ], [ 19.988276, 50.06772 ], [ 19.988139, 50.067226 ], [ 19.988448, 50.067114 ], [ 19.988645, 50.064468 ], [ 19.984536, 50.063692 ], [ 19.982147, 50.062449 ], [ 19.982769, 50.062129 ], [ 19.984827, 50.061544 ], [ 19.98648, 50.060382 ], [ 19.98685, 50.059855 ], [ 19.988761, 50.059792 ], [ 19.991396, 50.059271 ], [ 19.995094, 50.057286 ], [ 19.996897, 50.055543 ], [ 19.998927, 50.051628 ], [ 19.999862, 50.050488 ], [ 20.001792, 50.049026 ], [ 20.00552, 50.046984 ], [ 20.008611, 50.045752 ], [ 20.011181, 50.045031 ], [ 20.014094, 50.044952 ], [ 20.015155, 50.045193 ], [ 20.016474, 50.045959 ], [ 20.01809, 50.04862 ], [ 20.020089, 50.050602 ], [ 20.021423, 50.05129 ], [ 20.022829, 50.051681 ], [ 20.024425, 50.051693 ], [ 20.025894, 50.051383 ], [ 20.027363, 50.050792 ], [ 20.030283, 50.049134 ], [ 20.032262, 50.048444 ], [ 20.035754, 50.047843 ], [ 20.037048, 50.047834 ], [ 20.038487, 50.047966 ], [ 20.040394, 50.048449 ], [ 20.045857, 50.051273 ], [ 20.048342, 50.051914 ], [ 20.047983, 50.052669 ], [ 20.047437, 50.052837 ], [ 20.047544, 50.053472 ], [ 20.042592, 50.053824 ], [ 20.036133, 50.056242 ], [ 20.037043, 50.05709 ], [ 20.037288, 50.057754 ], [ 20.0375, 50.057689 ], [ 20.039326, 50.058651 ], [ 20.038413, 50.058936 ], [ 20.040624, 50.059952 ], [ 20.041633, 50.05998 ], [ 20.04213, 50.061449 ], [ 20.041463, 50.061551 ], [ 20.041585, 50.062351 ], [ 20.040325, 50.062423 ], [ 20.040616, 50.063174 ], [ 20.037069, 50.064082 ], [ 20.035328, 50.064363 ], [ 20.035525, 50.06397 ], [ 20.033259, 50.064292 ], [ 20.03252, 50.064613 ], [ 20.031446, 50.064766 ], [ 20.029516, 50.065968 ], [ 20.029018, 50.066067 ], [ 20.029212, 50.0672 ], [ 20.028967, 50.06792 ], [ 20.030888, 50.069743 ], [ 20.029541, 50.070108 ], [ 20.028717, 50.071003 ], [ 20.029224, 50.072031 ], [ 20.021071, 50.072937 ], [ 20.018578, 50.07294 ], [ 20.017681, 50.072562 ], [ 20.016591, 50.072657 ], [ 20.016138, 50.073184 ], [ 20.01629, 50.073946 ], [ 20.017356, 50.074258 ], [ 20.018616, 50.074864 ], [ 20.021356, 50.07632 ], [ 20.021891, 50.076799 ], [ 20.019124, 50.077684 ], [ 20.019302, 50.078154 ], [ 20.016159, 50.078895 ], [ 20.015874, 50.078932 ], [ 20.015788, 50.078608 ], [ 20.015236, 50.078683 ], [ 20.01592, 50.079812 ], [ 20.015741, 50.079953 ], [ 20.015709, 50.08095 ], [ 20.015888, 50.081611 ], [ 20.011843, 50.082843 ], [ 20.013272, 50.085703 ], [ 20.007158, 50.086772 ], [ 20.003739, 50.087754 ], [ 20.00345, 50.088101 ], [ 20.001115, 50.087854 ], [ 19.994908, 50.087579 ], [ 19.993082, 50.087744 ], [ 19.98865, 50.087155 ], [ 19.988643, 50.087043 ], [ 19.979515, 50.086045 ] ] ] } },
{ "type": "Feature", "properties": { "id": "15", "name": "Mistrzejowice", "district_full_name": "Dzielnica XV Mistrzejowice", "district_no": "XV", "population_est": 1015 }, "geometry": { "type": "Polygon", "coordinates": [ [ [ 19.978509, 50.087929 ], [ 19.979326, 50.086074 ], [ 19.979515, 50.086045 ], [ 19.988643, 50.087043 ], [ 19.98865, 50.087155 ], [ 19.993082, 50.087744 ], [ 19.994908, 50.087579 ], [ 20.001115, 50.087854 ], [ 20.003685, 50.088145 ], [ 20.00482, 50.088543 ], [ 20.013992, 50.093934 ], [ 20.01607, 50.094999 ], [ 20.018282, 50.095519 ], [ 20.019443, 50.095501 ], [ 20.020685, 50.095256 ], [ 20.026566, 50.093506 ], [ 20.029518, 50.093291 ], [ 20.029883, 50.093567 ], [ 20.030732, 50.093675 ], [ 20.03149, 50.094195 ], [ 20.032265, 50.094392 ], [ 20.032707, 50.094679 ], [ 20.032042, 50.095776 ], [ 20.032129, 50.09621 ], [ 20.031615, 50.096675 ], [ 20.031552, 50.097106 ], [ 20.031112, 50.097688 ], [ 20.030192, 50.097746 ], [ 20.029693, 50.098354 ], [ 20.029856, 50.098797 ], [ 20.030525, 50.099303 ], [ 20.030908, 50.099461 ], [ 20.031818, 50.099411 ], [ 20.032127, 50.099536 ], [ 20.033979, 50.101868 ], [ 20.034377, 50.101922 ], [ 20.034543, 50.102114 ], [ 20.034612, 50.10228 ], [ 20.03327, 50.104296 ], [ 20.036685, 50.104951 ], [ 20.037534, 50.105218 ], [ 20.037729, 50.105546 ], [ 20.037533, 50.105749 ], [ 20.037081, 50.105644 ], [ 20.036296, 50.105947 ], [ 20.035563, 50.105857 ], [ 20.035043, 50.106555 ], [ 20.034031, 50.108737 ], [ 20.03315, 50.10832 ], [ 20.031625, 50.107885 ], [ 20.030037, 50.105885 ], [ 20.028003, 50.105767 ], [ 20.02763, 50.104358 ], [ 20.024241, 50.103943 ], [ 20.022095, 50.105181 ], [ 20.018365, 50.106258 ], [ 20.016245, 50.106619 ], [ 20.004547, 50.107164 ], [ 19.999885, 50.107244 ], [ 19.994825, 50.10701 ], [ 19.992049, 50.106526 ], [ 19.990749, 50.106117 ], [ 19.989501, 50.10536 ], [ 19.98872, 50.105125 ], [ 19.988289, 50.10528 ], [ 19.987839, 50.105225 ], [ 19.986674, 50.104783 ], [ 19.991044, 50.103882 ], [ 19.991064, 50.10288 ], [ 19.990832, 50.102507 ], [ 19.991008, 50.101949 ], [ 19.990652, 50.101415 ], [ 19.990698, 50.100605 ], [ 19.990429, 50.100405 ], [ 19.990702, 50.099944 ], [ 19.992042, 50.100266 ], [ 19.992478, 50.099555 ], [ 19.990515, 50.099055 ], [ 19.989338, 50.098441 ], [ 19.987761, 50.097903 ], [ 19.988057, 50.097902 ], [ 19.987696, 50.095622 ], [ 19.988075, 50.094914 ], [ 19.987822, 50.094867 ], [ 19.987502, 50.094399 ], [ 19.987852, 50.09095 ], [ 19.983632, 50.090422 ], [ 19.982965, 50.090282 ], [ 19.982854, 50.090057 ], [ 19.980125, 50.089755 ], [ 19.980596, 50.0882 ], [ 19.978509, 50.087929 ] ] ] } },
{ "type": "Feature", "properties": { "id": "16", "name": "Bieńczyce", "district_full_name": "Dzielnica XVI Bieńczyce", "district_no": "XVI", "population_est": 832 }, "geometry": { "type": "Polygon", "coordinates": [ [ [ 20.00345, 50.088101 ], [ 20.003739, 50.087754 ], [ 20.007158, 50.086772 ], [ 20.013272, 50.085703 ], [ 20.011843, 50.082843 ], [ 20.015888, 50.081611 ], [ 20.015709, 50.08095 ], [ 20.015741, 50.079953 ], [ 20.01592, 50.079812 ], [ 20.015236, 50.078683 ], [ 20.015788, 50.078608 ], [ 20.015874, 50.078932 ], [ 20.016159, 50.078895 ], [ 20.019302, 50.078154 ], [ 20.019124, 50.077684 ], [ 20.020931, 50.077187 ], [ 20.021891, 50.076799 ], [ 20.02184, 50.076685 ], [ 20.025713, 50.078793 ], [ 20.026487, 50.07971 ], [ 20.026413, 50.079979 ], [ 20.026983, 50.080272 ], [ 20.027327, 50.080187 ], [ 20.028089, 50.080326 ], [ 20.028584, 50.079733 ], [ 20.038387, 50.085053 ], [ 20.040673, 50.083412 ], [ 20.043526, 50.082779 ], [ 20.049658, 50.080205 ], [ 20.050221, 50.079719 ], [ 20.052345, 50.076416 ], [ 20.056489, 50.077448 ], [ 20.056329, 50.078237 ], [ 20.055961, 50.078771 ], [ 20.053052, 50.081054 ], [ 20.053418, 50.081542 ], [ 20.053429, 50.082916 ], [ 20.05377, 50.083443 ], [ 20.053643, 50.083649 ], [ 20.052888, 50.083728 ], [ 20.052048, 50.083534 ], [ 20.049429, 50.083516 ], [ 20.048693, 50.083796 ], [ 20.047757, 50.084623 ], [ 20.047594, 50.085514 ], [ 20.046847, 50.086845 ], [ 20.047243, 50.088754 ], [ 20.044981, 50.089608 ], [ 20.038289, 50.08933 ], [ 20.032665, 50.09083 ], [ 20.033806, 50.092489 ], [ 20.033937, 50.092952 ], [ 20.033662, 50.093489 ], [ 20.029518, 50.093291 ], [ 20.027253, 50.093389 ], [ 20.026069, 50.093613 ], [ 20.019889, 50.095435 ], [ 20.018835, 50.09554 ], [ 20.017462, 50.095395 ], [ 20.01607, 50.094999 ], [ 20.013992, 50.093934 ], [ 20.00482, 50.088543 ], [ 20.00345, 50.088101 ] ] ] } },
{ "type": "Feature", "properties": { "id": "17", "name": "Wzgórza Krzesławickie", "district_full_name": "Dzielnica XVII Wzgórza Krzesławickie", "district_no": "XVII", "population_est": 3885 }, "geometry": { "type": "Polygon", "coordinates": [ [ [ 20.029626, 50.093349 ], [ 20.033662, 50.093489 ], [ 20.033937, 50.092952 ], [ 20.033806, 50.092489 ], [ 20.032665, 50.09083 ], [ 20.035555, 50.090037 ], [ 20.038671, 50.089288 ], [ 20.044981, 50.089608 ], [ 20.047243, 50.088754 ], [ 20.046847, 50.086845 ], [ 20.047594, 50.085514 ], [ 20.047757, 50.084623 ], [ 20.048693, 50.083796 ], [ 20.049429, 50.083516 ], [ 20.052048, 50.083534 ], [ 20.052888, 50.083728 ], [ 20.053643, 50.083649 ], [ 20.05377, 50.083443 ], [ 20.053429, 50.082916 ], [ 20.053418, 50.081542 ], [ 20.053052, 50.081054 ], [ 20.055961, 50.078771 ], [ 20.056329, 50.078237 ], [ 20.056489, 50.077448 ], [ 20.062868, 50.079146 ], [ 20.066121, 50.079582 ], [ 20.066255, 50.080944 ], [ 20.066627, 50.081389 ], [ 20.082079, 50.088721 ], [ 20.083311, 50.089216 ], [ 20.08349, 50.089165 ], [ 20.083753, 50.089428 ], [ 20.083991, 50.089337 ], [ 20.084255, 50.089498 ], [ 20.085454, 50.090683 ], [ 20.085044, 50.091721 ], [ 20.089651, 50.092299 ], [ 20.093243, 50.092281 ], [ 20.107339, 50.089645 ], [ 20.110065, 50.088907 ], [ 20.112464, 50.087942 ], [ 20.114544, 50.087565 ], [ 20.1156, 50.087536 ], [ 20.116634, 50.087669 ], [ 20.116323, 50.08861 ], [ 20.119762, 50.089038 ], [ 20.119756, 50.089195 ], [ 20.125162, 50.090055 ], [ 20.126461, 50.090678 ], [ 20.12844, 50.090996 ], [ 20.128243, 50.091471 ], [ 20.129248, 50.091628 ], [ 20.129436, 50.091154 ], [ 20.131168, 50.091465 ], [ 20.133105, 50.092135 ], [ 20.133326, 50.092421 ], [ 20.133181, 50.092621 ], [ 20.134888, 50.091623 ], [ 20.135176, 50.091796 ], [ 20.137496, 50.092104 ], [ 20.137469, 50.091856 ], [ 20.145675, 50.093038 ], [ 20.154348, 50.094601 ], [ 20.15471, 50.096916 ], [ 20.154181, 50.098849 ], [ 20.154245, 50.09997 ], [ 20.155888, 50.099983 ], [ 20.155909, 50.100395 ], [ 20.156875, 50.100404 ], [ 20.156972, 50.100961 ], [ 20.156047, 50.101001 ], [ 20.156785, 50.103299 ], [ 20.156588, 50.103343 ], [ 20.157644, 50.107007 ], [ 20.157485, 50.107046 ], [ 20.160065, 50.11002 ], [ 20.160873, 50.11066 ], [ 20.159561, 50.11154 ], [ 20.159246, 50.11159 ], [ 20.158919, 50.112113 ], [ 20.158804, 50.114156 ], [ 20.158558, 50.114809 ], [ 20.158818, 50.115001 ], [ 20.158385, 50.115334 ], [ 20.158491, 50.115522 ], [ 20.156981, 50.1182 ], [ 20.154339, 50.119458 ], [ 20.15301, 50.118822 ], [ 20.15246, 50.117901 ], [ 20.151741, 50.117216 ], [ 20.146882, 50.114343 ], [ 20.146331, 50.113738 ], [ 20.144661, 50.111456 ], [ 20.143114, 50.106468 ], [ 20.137939, 50.106569 ], [ 20.137877, 50.106759 ], [ 20.135494, 50.106883 ], [ 20.131712, 50.106834 ], [ 20.127565, 50.107368 ], [ 20.125869, 50.107837 ], [ 20.124908, 50.107954 ], [ 20.124345, 50.108226 ], [ 20.122761, 50.108503 ], [ 20.120845, 50.108458 ], [ 20.120238, 50.115712 ], [ 20.119983, 50.116455 ], [ 20.118555, 50.116773 ], [ 20.117955, 50.116284 ], [ 20.117255, 50.116783 ], [ 20.114839, 50.116993 ], [ 20.111395, 50.116897 ], [ 20.111347, 50.116498 ], [ 20.108372, 50.116734 ], [ 20.096246, 50.119349 ], [ 20.094224, 50.116301 ], [ 20.094117, 50.114794 ], [ 20.090232, 50.113739 ], [ 20.08816, 50.113461 ], [ 20.087953, 50.111402 ], [ 20.085326, 50.111527 ], [ 20.084358, 50.111225 ], [ 20.084174, 50.110256 ], [ 20.08372, 50.109813 ], [ 20.081778, 50.109575 ], [ 20.078269, 50.108301 ], [ 20.077283, 50.10822 ], [ 20.076225, 50.109185 ], [ 20.075492, 50.109489 ], [ 20.077688, 50.111544 ], [ 20.07867, 50.11203 ], [ 20.078959, 50.112405 ], [ 20.076457, 50.112958 ], [ 20.073128, 50.112717 ], [ 20.070259, 50.112739 ], [ 20.070152, 50.113929 ], [ 20.067046, 50.114019 ], [ 20.063826, 50.113441 ], [ 20.062742, 50.113448 ], [ 20.06159, 50.113527 ], [ 20.061784, 50.114263 ], [ 20.058478, 50.114694 ], [ 20.058071, 50.113738 ], [ 20.056428, 50.112602 ], [ 20.055484, 50.112592 ], [ 20.054617, 50.112892 ], [ 20.053501, 50.112824 ], [ 20.052517, 50.112088 ], [ 20.052087, 50.111237 ], [ 20.052185, 50.110878 ], [ 20.051867, 50.110641 ], [ 20.050726, 50.111194 ], [ 20.050359, 50.11094 ], [ 20.051064, 50.11056 ], [ 20.050764, 50.110285 ], [ 20.050086, 50.11025 ], [ 20.049188, 50.109705 ], [ 20.047638, 50.109648 ], [ 20.046946, 50.109314 ], [ 20.045463, 50.111157 ], [ 20.044705, 50.110321 ], [ 20.044183, 50.110695 ], [ 20.042406, 50.11249 ], [ 20.04192, 50.113487 ], [ 20.03973, 50.113323 ], [ 20.037686, 50.112965 ], [ 20.03704, 50.112698 ], [ 20.037165, 50.111876 ], [ 20.036943, 50.111326 ], [ 20.036158, 50.110674 ], [ 20.03601, 50.110168 ], [ 20.035229, 50.109994 ], [ 20.035799, 50.108616 ], [ 20.034112, 50.108476 ], [ 20.035563, 50.105857 ], [ 20.036296, 50.105947 ], [ 20.037081, 50.105644 ], [ 20.037533, 50.105749 ], [ 20.037733, 50.105459 ], [ 20.037534, 50.105218 ], [ 20.036685, 50.104951 ], [ 20.03327, 50.104296 ], [ 20.034612, 50.10228 ], [ 20.034543, 50.102114 ], [ 20.034377, 50.101922 ], [ 20.033979, 50.101868 ], [ 20.032127, 50.099536 ], [ 20.031818, 50.099411 ], [ 20.030908, 50.099461 ], [ 20.030525, 50.099303 ], [ 20.029856, 50.098797 ], [ 20.029693, 50.098354 ], [ 20.030192, 50.097746 ], [ 20.031112, 50.097688 ], [ 20.031552, 50.097106 ], [ 20.031615, 50.096675 ], [ 20.032129, 50.09621 ], [ 20.032042, 50.095776 ], [ 20.032707, 50.094679 ], [ 20.032265, 50.094392 ], [ 20.03149, 50.094195 ], [ 20.030732, 50.093675 ], [ 20.029883, 50.093567 ], [ 20.029626, 50.093349 ] ] ] } },
{ "type": "Feature", "properties": { "id": "18", "name": "Nowa Huta", "district_full_name": "Dzielnica XVIII Nowa Huta", "district_no": "XVIII", "population_est": 4343 }, "geometry": { "type": "Polygon", "coordinates": [ [ [ 20.016138, 50.073184 ], [ 20.016591, 50.072657 ], [ 20.01694, 50.0726 ], [ 20.017681, 50.072562 ], [ 20.018578, 50.07294 ], [ 20.021071, 50.072937 ], [ 20.029224, 50.072031 ], [ 20.028717, 50.071003 ], [ 20.029541, 50.070108 ], [ 20.030888, 50.069743 ], [ 20.028967, 50.06792 ], [ 20.029212, 50.0672 ], [ 20.029018, 50.066067 ], [ 20.029516, 50.065968 ], [ 20.031446, 50.064766 ], [ 20.035149, 50.063991 ], [ 20.035525, 50.06397 ], [ 20.035328, 50.064363 ], [ 20.037069, 50.064082 ], [ 20.040616, 50.063174 ], [ 20.040325, 50.062423 ], [ 20.041585, 50.062351 ], [ 20.041463, 50.061551 ], [ 20.042132, 50.06142 ], [ 20.041633, 50.05998 ], [ 20.040624, 50.059952 ], [ 20.038413, 50.058936 ], [ 20.039326, 50.058651 ], [ 20.0375, 50.057689 ], [ 20.037288, 50.057754 ], [ 20.037043, 50.05709 ], [ 20.036133, 50.056242 ], [ 20.04038, 50.054581 ], [ 20.043133, 50.053715 ], [ 20.047544, 50.053472 ], [ 20.047437, 50.052837 ], [ 20.047983, 50.052669 ], [ 20.048342, 50.051914 ], [ 20.049404, 50.052037 ], [ 20.051355, 50.052003 ], [ 20.055118, 50.051336 ], [ 20.057242, 50.050763 ], [ 20.059948, 50.050465 ], [ 20.066158, 50.050399 ], [ 20.068976, 50.050543 ], [ 20.077531, 50.051724 ], [ 20.082946, 50.052717 ], [ 20.086656, 50.053061 ], [ 20.087611, 50.05293 ], [ 20.0902, 50.05217 ], [ 20.090799, 50.051853 ], [ 20.092103, 50.050996 ], [ 20.09345, 50.049591 ], [ 20.093992, 50.048848 ], [ 20.094455, 50.047613 ], [ 20.094159, 50.04532 ], [ 20.094378, 50.044424 ], [ 20.095061, 50.043439 ], [ 20.096239, 50.042581 ], [ 20.098081, 50.041796 ], [ 20.100697, 50.041316 ], [ 20.10226, 50.041193 ], [ 20.104374, 50.04128 ], [ 20.106856, 50.042443 ], [ 20.111738, 50.04267 ], [ 20.115403, 50.042625 ], [ 20.119295, 50.041813 ], [ 20.122787, 50.04031 ], [ 20.125055, 50.039732 ], [ 20.126629, 50.0397 ], [ 20.128866, 50.040122 ], [ 20.130033, 50.040661 ], [ 20.131764, 50.041878 ], [ 20.13383, 50.043911 ], [ 20.134961, 50.044725 ], [ 20.136552, 50.045411 ], [ 20.138074, 50.045792 ], [ 20.140399, 50.04595 ], [ 20.142275, 50.045735 ], [ 20.150352, 50.043662 ], [ 20.153512, 50.043057 ], [ 20.156414, 50.042837 ], [ 20.159579, 50.042831 ], [ 20.162387, 50.043112 ], [ 20.166522, 50.043837 ], [ 20.178613, 50.046892 ], [ 20.183856, 50.048017 ], [ 20.18787, 50.048349 ], [ 20.190543, 50.04814 ], [ 20.192784, 50.047559 ], [ 20.194861, 50.046684 ], [ 20.198552, 50.044694 ], [ 20.201116, 50.043865 ], [ 20.204365, 50.043585 ], [ 20.207274, 50.044006 ], [ 20.208888, 50.044605 ], [ 20.209989, 50.045445 ], [ 20.211269, 50.047914 ], [ 20.212823, 50.050115 ], [ 20.214886, 50.051918 ], [ 20.217346, 50.053435 ], [ 20.212266, 50.057678 ], [ 20.207363, 50.064017 ], [ 20.206357, 50.065014 ], [ 20.205627, 50.065169 ], [ 20.204379, 50.064818 ], [ 20.20391, 50.065239 ], [ 20.202643, 50.065829 ], [ 20.199184, 50.066995 ], [ 20.198959, 50.068152 ], [ 20.197546, 50.069146 ], [ 20.196492, 50.069489 ], [ 20.194759, 50.069764 ], [ 20.193013, 50.070469 ], [ 20.192751, 50.071264 ], [ 20.192961, 50.072276 ], [ 20.194454, 50.073431 ], [ 20.195355, 50.073716 ], [ 20.195234, 50.073955 ], [ 20.199564, 50.074243 ], [ 20.19946, 50.074868 ], [ 20.197089, 50.075618 ], [ 20.196855, 50.076084 ], [ 20.195789, 50.076237 ], [ 20.195605, 50.076395 ], [ 20.195526, 50.078137 ], [ 20.194592, 50.078221 ], [ 20.194614, 50.07878 ], [ 20.193607, 50.079106 ], [ 20.193352, 50.079626 ], [ 20.192832, 50.079786 ], [ 20.192695, 50.080437 ], [ 20.19172, 50.080834 ], [ 20.1911, 50.081504 ], [ 20.190421, 50.081635 ], [ 20.190022, 50.081982 ], [ 20.189766, 50.082678 ], [ 20.189968, 50.083975 ], [ 20.189319, 50.084731 ], [ 20.188496, 50.085104 ], [ 20.185592, 50.085367 ], [ 20.185114, 50.085644 ], [ 20.184929, 50.086067 ], [ 20.189189, 50.086447 ], [ 20.190368, 50.087006 ], [ 20.192325, 50.087399 ], [ 20.19284, 50.08782 ], [ 20.191743, 50.091649 ], [ 20.191572, 50.094297 ], [ 20.19184, 50.095564 ], [ 20.191624, 50.097431 ], [ 20.192213, 50.100569 ], [ 20.193106, 50.103221 ], [ 20.193898, 50.104348 ], [ 20.195058, 50.105413 ], [ 20.195384, 50.106973 ], [ 20.196131, 50.108262 ], [ 20.19737, 50.108327 ], [ 20.197883, 50.108508 ], [ 20.199631, 50.109622 ], [ 20.200896, 50.110017 ], [ 20.201434, 50.11065 ], [ 20.202241, 50.111117 ], [ 20.203335, 50.111225 ], [ 20.205017, 50.111128 ], [ 20.205727, 50.112311 ], [ 20.209079, 50.115565 ], [ 20.203979, 50.115955 ], [ 20.203855, 50.117152 ], [ 20.204773, 50.117386 ], [ 20.204067, 50.117669 ], [ 20.201616, 50.117487 ], [ 20.201315, 50.120472 ], [ 20.200267, 50.120477 ], [ 20.200287, 50.120208 ], [ 20.198984, 50.120571 ], [ 20.197791, 50.119639 ], [ 20.197003, 50.119561 ], [ 20.196247, 50.11968 ], [ 20.195933, 50.118685 ], [ 20.195491, 50.118493 ], [ 20.194601, 50.119006 ], [ 20.193555, 50.119215 ], [ 20.192984, 50.119672 ], [ 20.192499, 50.119632 ], [ 20.191029, 50.119054 ], [ 20.190523, 50.11865 ], [ 20.190239, 50.118025 ], [ 20.189751, 50.117798 ], [ 20.188636, 50.11806 ], [ 20.186861, 50.118218 ], [ 20.185352, 50.116759 ], [ 20.182451, 50.117836 ], [ 20.181568, 50.116626 ], [ 20.179812, 50.117233 ], [ 20.178755, 50.118349 ], [ 20.174935, 50.119789 ], [ 20.174222, 50.119019 ], [ 20.173378, 50.119081 ], [ 20.173188, 50.118824 ], [ 20.172393, 50.120385 ], [ 20.165805, 50.120514 ], [ 20.165848, 50.121531 ], [ 20.161346, 50.121467 ], [ 20.15906, 50.121606 ], [ 20.159197, 50.120801 ], [ 20.15768, 50.119739 ], [ 20.15734, 50.119675 ], [ 20.157224, 50.119352 ], [ 20.156377, 50.118978 ], [ 20.15634, 50.118571 ], [ 20.157161, 50.117955 ], [ 20.158491, 50.115522 ], [ 20.158385, 50.115334 ], [ 20.158818, 50.115001 ], [ 20.158558, 50.114809 ], [ 20.158733, 50.114657 ], [ 20.158968, 50.112019 ], [ 20.159246, 50.11159 ], [ 20.159561, 50.11154 ], [ 20.160873, 50.11066 ], [ 20.160065, 50.11002 ], [ 20.157485, 50.107046 ], [ 20.157644, 50.107007 ], [ 20.156588, 50.103343 ], [ 20.156785, 50.103299 ], [ 20.156047, 50.101001 ], [ 20.156972, 50.100961 ], [ 20.156875, 50.100404 ], [ 20.155909, 50.100395 ], [ 20.155888, 50.099983 ], [ 20.154245, 50.09997 ], [ 20.154181, 50.098849 ], [ 20.15471, 50.096916 ], [ 20.154348, 50.094601 ], [ 20.145675, 50.093038 ], [ 20.137469, 50.091856 ], [ 20.137496, 50.092104 ], [ 20.135176, 50.091796 ], [ 20.134888, 50.091623 ], [ 20.133181, 50.092621 ], [ 20.133326, 50.092421 ], [ 20.133105, 50.092135 ], [ 20.131168, 50.091465 ], [ 20.129436, 50.091154 ], [ 20.129248, 50.091628 ], [ 20.128243, 50.091471 ], [ 20.12844, 50.090996 ], [ 20.126461, 50.090678 ], [ 20.125162, 50.090055 ], [ 20.119756, 50.089195 ], [ 20.119762, 50.089038 ], [ 20.116323, 50.08861 ], [ 20.116634, 50.087669 ], [ 20.1156, 50.087536 ], [ 20.114544, 50.087565 ], [ 20.112464, 50.087942 ], [ 20.110065, 50.088907 ], [ 20.107339, 50.089645 ], [ 20.093243, 50.092281 ], [ 20.089651, 50.092299 ], [ 20.085044, 50.091721 ], [ 20.085454, 50.090683 ], [ 20.084255, 50.089498 ], [ 20.083991, 50.089337 ], [ 20.083753, 50.089428 ], [ 20.08349, 50.089165 ], [ 20.083311, 50.089216 ], [ 20.082079, 50.088721 ], [ 20.066627, 50.081389 ], [ 20.066255, 50.080944 ], [ 20.066121, 50.079582 ], [ 20.062868, 50.079146 ], [ 20.052345, 50.076416 ], [ 20.050221, 50.079719 ], [ 20.049658, 50.080205 ], [ 20.043526, 50.082779 ], [ 20.040673, 50.083412 ], [ 20.038387, 50.085053 ], [ 20.028584, 50.079733 ], [ 20.028089, 50.080326 ], [ 20.027327, 50.080187 ], [ 20.026983, 50.080272 ], [ 20.026413, 50.079979 ], [ 20.026487, 50.07971 ], [ 20.025713, 50.078793 ], [ 20.019389, 50.075258 ], [ 20.017356, 50.074258 ], [ 20.01629, 50.073946 ], [ 20.016138, 50.073184 ] ] ] } }
]
}
